<gpx xmlns:ns3="http://www.garmin.com/xmlschemas/TrackPointExtension/v1" xmlns="http://www.topografix.com/GPX/1/1" xmlns:xsi="http://www.w3.org/2001/XMLSchema-instance" xmlns:ns2="http://www.garmin.com/xmlschemas/GpxExtensions/v3" creator="Garmin Connect" version="1.1" xsi:schemaLocation="http://www.topografix.com/GPX/1/1 http://www.topografix.com/GPX/11.xsd">
  <extensions>
<distance>1000.0</distance>
<average_hr>99.0</average_hr>
<average_speed>0.194444446</average_speed>
<start_time>2021-05-03T12:43:00+00:00</start_time>
<end_time>2021-05-03T14:04:44.038000+00:00</end_time>
<moving_time>28.0</moving_time>
<elapsed_time>5436.829</elapsed_time>
</extensions>
<metadata>
    <link href="connect.garmin.com">
      <text>Garmin Connect</text>
    </link>
    <time>2021-05-03T12:43:00.000Z</time>
  </metadata>
  <trk>
    <name>度假村滑雪/雪板滑雪</name>
    <type>resort_skiing</type>
    <trkseg/>
  </trk>
</gpx>
