<gpx xmlns:ns3="http://www.garmin.com/xmlschemas/TrackPointExtension/v1" xmlns="http://www.topografix.com/GPX/1/1" xmlns:xsi="http://www.w3.org/2001/XMLSchema-instance" xmlns:ns2="http://www.garmin.com/xmlschemas/GpxExtensions/v3" creator="Garmin Connect" version="1.1" xsi:schemaLocation="http://www.topografix.com/GPX/1/1 http://www.topografix.com/GPX/11.xsd">
  <extensions>
<distance>5790.0</distance>
<average_hr>159.0</average_hr>
<average_speed>1.99037469920935</average_speed>
<start_time>2021-08-14T10:28:00+00:00</start_time>
<end_time>2021-08-14T11:16:29+00:00</end_time>
<moving_time>2454.488</moving_time>
<elapsed_time>2510.318</elapsed_time>
</extensions>
<metadata>
    <link href="connect.garmin.com">
      <text>Garmin Connect</text>
    </link>
    <time>2021-08-14T10:28:00.000Z</time>
  </metadata>
  <trk>
    <name>跑步机上跑步 Myrtle Beach 5k</name>
    <type>treadmill_running</type>
    <trkseg/>
  </trk>
</gpx>
