<gpx xmlns:ns3="http://www.garmin.com/xmlschemas/TrackPointExtension/v1" xmlns="http://www.topografix.com/GPX/1/1" xmlns:xsi="http://www.w3.org/2001/XMLSchema-instance" xmlns:ns2="http://www.garmin.com/xmlschemas/GpxExtensions/v3" creator="Garmin Connect" version="1.1" xsi:schemaLocation="http://www.topografix.com/GPX/1/1 http://www.topografix.com/GPX/11.xsd">
  <extensions>
<distance>414.73</distance>
<average_hr>99.0</average_hr>
<average_speed>1.1100000143051147</average_speed>
<start_time>2021-08-16T13:02:45+00:00</start_time>
<end_time>2021-08-16T13:08:58.572000+00:00</end_time>
<moving_time>373.0</moving_time>
<elapsed_time>373.572</elapsed_time>
</extensions>
<metadata>
    <link href="connect.garmin.com">
      <text>Garmin Connect</text>
    </link>
    <time>2021-08-16T13:02:45.000Z</time>
  </metadata>
  <trk>
    <name>步行</name>
    <type>walking</type>
    <trkseg/>
  </trk>
</gpx>
