<gpx xmlns:ns3="http://www.garmin.com/xmlschemas/TrackPointExtension/v1" xmlns="http://www.topografix.com/GPX/1/1" xmlns:xsi="http://www.w3.org/2001/XMLSchema-instance" xmlns:ns2="http://www.garmin.com/xmlschemas/GpxExtensions/v3" creator="Garmin Connect" version="1.1" xsi:schemaLocation="http://www.topografix.com/GPX/1/1 http://www.topografix.com/GPX/11.xsd">
  <extensions>
<distance>6290.0</distance>
<average_hr>156.0</average_hr>
<average_speed>2.138728323699422</average_speed>
<start_time>2021-08-19T13:23:00+00:00</start_time>
<end_time>2021-08-19T14:12:01+00:00</end_time>
<moving_time>2792.439</moving_time>
<elapsed_time>2843.643</elapsed_time>
</extensions>
<metadata>
    <link href="connect.garmin.com">
      <text>Garmin Connect</text>
    </link>
    <time>2021-08-19T13:23:00.000Z</time>
  </metadata>
  <trk>
    <name>跑步机上跑步 Lava 1968 Trail Long Run</name>
    <type>treadmill_running</type>
    <trkseg/>
  </trk>
</gpx>
