<gpx xmlns:ns3="http://www.garmin.com/xmlschemas/TrackPointExtension/v1" xmlns="http://www.topografix.com/GPX/1/1" xmlns:xsi="http://www.w3.org/2001/XMLSchema-instance" xmlns:ns2="http://www.garmin.com/xmlschemas/GpxExtensions/v3" creator="Garmin Connect" version="1.1" xsi:schemaLocation="http://www.topografix.com/GPX/1/1 http://www.topografix.com/GPX/11.xsd">
  <extensions>
<distance>6810.0</distance>
<average_hr>167.0</average_hr>
<average_speed>2.3116089613034623</average_speed>
<start_time>2021-08-22T01:51:00+00:00</start_time>
<end_time>2021-08-22T02:40:06+00:00</end_time>
<moving_time>2903.295</moving_time>
<elapsed_time>2927.02</elapsed_time>
</extensions>
<metadata>
    <link href="connect.garmin.com">
      <text>Garmin Connect</text>
    </link>
    <time>2021-08-22T01:51:00.000Z</time>
  </metadata>
  <trk>
    <name>跑步机上跑步 BOSTON MARATHON® PART 1</name>
    <type>treadmill_running</type>
    <trkseg/>
  </trk>
</gpx>
