<gpx xmlns:ns3="http://www.garmin.com/xmlschemas/TrackPointExtension/v1" xmlns="http://www.topografix.com/GPX/1/1" xmlns:xsi="http://www.w3.org/2001/XMLSchema-instance" xmlns:ns2="http://www.garmin.com/xmlschemas/GpxExtensions/v3" creator="Garmin Connect" version="1.1" xsi:schemaLocation="http://www.topografix.com/GPX/1/1 http://www.topografix.com/GPX/11.xsd">
  <extensions>
<distance>6270.0</distance>
<average_hr>160.0</average_hr>
<average_speed>2.329123328380386</average_speed>
<start_time>2021-08-29T08:10:00+00:00</start_time>
<end_time>2021-08-29T08:54:52+00:00</end_time>
<moving_time>2517.0</moving_time>
<elapsed_time>2595.682</elapsed_time>
</extensions>
<metadata>
    <link href="connect.garmin.com">
      <text>Garmin Connect</text>
    </link>
    <time>2021-08-29T08:10:00.000Z</time>
  </metadata>
  <trk>
    <name>跑步机上跑步 Río Chiquito Threshold Run, Lake Arenal, Costa Rica</name>
    <type>treadmill_running</type>
    <trkseg/>
  </trk>
</gpx>
