<gpx xmlns:ns3="http://www.garmin.com/xmlschemas/TrackPointExtension/v1" xmlns="http://www.topografix.com/GPX/1/1" xmlns:xsi="http://www.w3.org/2001/XMLSchema-instance" xmlns:ns2="http://www.garmin.com/xmlschemas/GpxExtensions/v3" creator="Garmin Connect" version="1.1" xsi:schemaLocation="http://www.topografix.com/GPX/1/1 http://www.topografix.com/GPX/11.xsd">
  <extensions>
<distance>9070.0</distance>
<average_hr>166.0</average_hr>
<average_speed>2.1503082029397818</average_speed>
<start_time>2021-09-07T12:57:00+00:00</start_time>
<end_time>2021-09-07T14:07:18+00:00</end_time>
<moving_time>4173.779</moving_time>
<elapsed_time>4198.276</elapsed_time>
</extensions>
<metadata>
    <link href="connect.garmin.com">
      <text>Garmin Connect</text>
    </link>
    <time>2021-09-07T12:57:00.000Z</time>
  </metadata>
  <trk>
    <name>跑步机上跑步 YELLOW MOUNTAIN &amp; IRAZÚ VOLCANO LONG RUN, CARTAGO, COSTA RICA</name>
    <type>treadmill_running</type>
    <trkseg/>
  </trk>
</gpx>
