<gpx xmlns:ns3="http://www.garmin.com/xmlschemas/TrackPointExtension/v1" xmlns="http://www.topografix.com/GPX/1/1" xmlns:xsi="http://www.w3.org/2001/XMLSchema-instance" xmlns:ns2="http://www.garmin.com/xmlschemas/GpxExtensions/v3" creator="Garmin Connect" version="1.1" xsi:schemaLocation="http://www.topografix.com/GPX/1/1 http://www.topografix.com/GPX/11.xsd">
  <extensions>
<distance>5900.0</distance>
<average_hr>161.0</average_hr>
<average_speed>2.465524446301713</average_speed>
<start_time>2021-09-16T13:05:00+00:00</start_time>
<end_time>2021-09-16T13:44:53+00:00</end_time>
<moving_time>2332.928</moving_time>
<elapsed_time>2340.878</elapsed_time>
</extensions>
<metadata>
    <link href="connect.garmin.com">
      <text>Garmin Connect</text>
    </link>
    <time>2021-09-16T13:05:00.000Z</time>
  </metadata>
  <trk>
    <name>跑步机上跑步 VIENTO FRESCO WATERFALLS RECOVERY RUN, MONTEVERDE, COSTA RICA</name>
    <type>treadmill_running</type>
    <trkseg/>
  </trk>
</gpx>
