<gpx xmlns:ns3="http://www.garmin.com/xmlschemas/TrackPointExtension/v1" xmlns="http://www.topografix.com/GPX/1/1" xmlns:xsi="http://www.w3.org/2001/XMLSchema-instance" xmlns:ns2="http://www.garmin.com/xmlschemas/GpxExtensions/v3" creator="Garmin Connect" version="1.1" xsi:schemaLocation="http://www.topografix.com/GPX/1/1 http://www.topografix.com/GPX/11.xsd">
  <extensions>
<distance>7320.0</distance>
<average_hr>155.0</average_hr>
<average_speed>2.2447102115915363</average_speed>
<start_time>2021-10-12T12:55:00+00:00</start_time>
<end_time>2021-10-12T13:49:21+00:00</end_time>
<moving_time>2973.583</moving_time>
<elapsed_time>3001.021</elapsed_time>
</extensions>
<metadata>
    <link href="connect.garmin.com">
      <text>Garmin Connect</text>
    </link>
    <time>2021-10-12T12:55:00.000Z</time>
  </metadata>
  <trk>
    <name>跑步机上跑步 Boston Marathon® Part 2</name>
    <type>treadmill_running</type>
    <trkseg/>
  </trk>
</gpx>
