<gpx xmlns:ns3="http://www.garmin.com/xmlschemas/TrackPointExtension/v1" xmlns="http://www.topografix.com/GPX/1/1" xmlns:xsi="http://www.w3.org/2001/XMLSchema-instance" xmlns:ns2="http://www.garmin.com/xmlschemas/GpxExtensions/v3" creator="Garmin Connect" version="1.1" xsi:schemaLocation="http://www.topografix.com/GPX/1/1 http://www.topografix.com/GPX/11.xsd">
  <extensions>
<distance>6600.0</distance>
<average_hr>161.0</average_hr>
<average_speed>2.5239999294281006</average_speed>
<start_time>2023-05-07T08:16:43+00:00</start_time>
<end_time>2023-05-07T09:00:18.106000+00:00</end_time>
<moving_time>2579.145</moving_time>
<elapsed_time>2615.106</elapsed_time>
</extensions>
<metadata>
    <link href="connect.garmin.com">
      <text>Garmin Connect</text>
    </link>
    <time>2023-05-07T08:16:43.000Z</time>
  </metadata>
  <trk>
    <name>NAUYACA WATERFALLS THRESHOLD RUN, DOMINICAL, COSTA RICA</name>
    <type>treadmill_running</type>
    <trkseg/>
  </trk>
</gpx>
