<gpx xmlns:ns3="http://www.garmin.com/xmlschemas/TrackPointExtension/v1" xmlns="http://www.topografix.com/GPX/1/1" xmlns:xsi="http://www.w3.org/2001/XMLSchema-instance" xmlns:ns2="http://www.garmin.com/xmlschemas/GpxExtensions/v3" creator="Garmin Connect" version="1.1" xsi:schemaLocation="http://www.topografix.com/GPX/1/1 http://www.topografix.com/GPX/11.xsd">
  <extensions>
<distance>170.96</distance>
<average_hr>89.0</average_hr>
<average_speed>1.0770000219345093</average_speed>
<start_time>2025-03-30T02:13:39+00:00</start_time>
<end_time>2025-03-30T02:16:17.785000+00:00</end_time>
<moving_time>147.0</moving_time>
<elapsed_time>158.785</elapsed_time>
</extensions>
<metadata>
    <link href="connect.garmin.com">
      <text>Garmin Connect</text>
    </link>
    <time>2025-03-30T02:13:39.000Z</time>
  </metadata>
  <trk>
    <name>海口市 徒步</name>
    <type>hiking</type>
    <trkseg>
      <trkpt lat="20.03575474955141544342041015625" lon="110.4252058826386928558349609375">
        <ele>0.4000000059604644775390625</ele>
        <time>2025-03-30T02:13:39.000Z</time>
        <extensions>
          <ns3:TrackPointExtension>
            <ns3:atemp>28.0</ns3:atemp>
            <ns3:hr>90</ns3:hr>
            <ns3:cad>52</ns3:cad>
          </ns3:TrackPointExtension>
        </extensions>
      </trkpt>
      <trkpt lat="20.035744942724704742431640625" lon="110.42518534697592258453369140625">
        <ele>0.4000000059604644775390625</ele>
        <time>2025-03-30T02:13:40.000Z</time>
        <extensions>
          <ns3:TrackPointExtension>
            <ns3:atemp>27.0</ns3:atemp>
            <ns3:hr>89</ns3:hr>
            <ns3:cad>52</ns3:cad>
          </ns3:TrackPointExtension>
        </extensions>
      </trkpt>
      <trkpt lat="20.03572792746126651763916015625" lon="110.42520730756223201751708984375">
        <ele>0.20000000298023223876953125</ele>
        <time>2025-03-30T02:13:41.000Z</time>
        <extensions>
          <ns3:TrackPointExtension>
            <ns3:atemp>27.0</ns3:atemp>
            <ns3:hr>90</ns3:hr>
            <ns3:cad>53</ns3:cad>
          </ns3:TrackPointExtension>
        </extensions>
      </trkpt>
      <trkpt lat="20.03572608344256877899169921875" lon="110.42519859038293361663818359375">
        <ele>0.20000000298023223876953125</ele>
        <time>2025-03-30T02:13:42.000Z</time>
        <extensions>
          <ns3:TrackPointExtension>
            <ns3:atemp>27.0</ns3:atemp>
            <ns3:hr>90</ns3:hr>
            <ns3:cad>53</ns3:cad>
          </ns3:TrackPointExtension>
        </extensions>
      </trkpt>
      <trkpt lat="20.03570613451302051544189453125" lon="110.4251944832503795623779296875">
        <ele>0</ele>
        <time>2025-03-30T02:13:43.000Z</time>
        <extensions>
          <ns3:TrackPointExtension>
            <ns3:atemp>27.0</ns3:atemp>
            <ns3:hr>89</ns3:hr>
            <ns3:cad>53</ns3:cad>
          </ns3:TrackPointExtension>
        </extensions>
      </trkpt>
      <trkpt lat="20.03567847423255443572998046875" lon="110.4251783899962902069091796875">
        <ele>0</ele>
        <time>2025-03-30T02:13:44.000Z</time>
        <extensions>
          <ns3:TrackPointExtension>
            <ns3:atemp>28.0</ns3:atemp>
            <ns3:hr>90</ns3:hr>
            <ns3:cad>53</ns3:cad>
          </ns3:TrackPointExtension>
        </extensions>
      </trkpt>
      <trkpt lat="20.03566187806427478790283203125" lon="110.425158776342868804931640625">
        <ele>0</ele>
        <time>2025-03-30T02:13:45.000Z</time>
        <extensions>
          <ns3:TrackPointExtension>
            <ns3:atemp>27.0</ns3:atemp>
            <ns3:hr>90</ns3:hr>
            <ns3:cad>53</ns3:cad>
          </ns3:TrackPointExtension>
        </extensions>
      </trkpt>
      <trkpt lat="20.03565601073205471038818359375" lon="110.42515064589679241180419921875">
        <ele>0</ele>
        <time>2025-03-30T02:13:46.000Z</time>
        <extensions>
          <ns3:TrackPointExtension>
            <ns3:atemp>28.0</ns3:atemp>
            <ns3:hr>90</ns3:hr>
            <ns3:cad>53</ns3:cad>
          </ns3:TrackPointExtension>
        </extensions>
      </trkpt>
      <trkpt lat="20.03563153557479381561279296875" lon="110.42512030340731143951416015625">
        <ele>0</ele>
        <time>2025-03-30T02:13:47.000Z</time>
        <extensions>
          <ns3:TrackPointExtension>
            <ns3:atemp>27.0</ns3:atemp>
            <ns3:hr>90</ns3:hr>
            <ns3:cad>53</ns3:cad>
          </ns3:TrackPointExtension>
        </extensions>
      </trkpt>
      <trkpt lat="20.03562390804290771484375" lon="110.42511359788477420806884765625">
        <ele>-0.20000000298023223876953125</ele>
        <time>2025-03-30T02:13:48.000Z</time>
        <extensions>
          <ns3:TrackPointExtension>
            <ns3:atemp>28.0</ns3:atemp>
            <ns3:hr>90</ns3:hr>
            <ns3:cad>53</ns3:cad>
          </ns3:TrackPointExtension>
        </extensions>
      </trkpt>
      <trkpt lat="20.03562147729098796844482421875" lon="110.425115190446376800537109375">
        <ele>-0.20000000298023223876953125</ele>
        <time>2025-03-30T02:13:49.000Z</time>
        <extensions>
          <ns3:TrackPointExtension>
            <ns3:atemp>28.0</ns3:atemp>
            <ns3:hr>89</ns3:hr>
            <ns3:cad>53</ns3:cad>
          </ns3:TrackPointExtension>
        </extensions>
      </trkpt>
      <trkpt lat="20.03561661578714847564697265625" lon="110.4251123405992984771728515625">
        <ele>-0.4000000059604644775390625</ele>
        <time>2025-03-30T02:13:50.000Z</time>
        <extensions>
          <ns3:TrackPointExtension>
            <ns3:atemp>28.0</ns3:atemp>
            <ns3:hr>89</ns3:hr>
            <ns3:cad>53</ns3:cad>
          </ns3:TrackPointExtension>
        </extensions>
      </trkpt>
      <trkpt lat="20.035610832273960113525390625" lon="110.42511192150413990020751953125">
        <ele>-0.4000000059604644775390625</ele>
        <time>2025-03-30T02:13:51.000Z</time>
        <extensions>
          <ns3:TrackPointExtension>
            <ns3:atemp>27.0</ns3:atemp>
            <ns3:hr>89</ns3:hr>
            <ns3:cad>53</ns3:cad>
          </ns3:TrackPointExtension>
        </extensions>
      </trkpt>
      <trkpt lat="20.0356046296656131744384765625" lon="110.42510923929512500762939453125">
        <ele>-0.4000000059604644775390625</ele>
        <time>2025-03-30T02:13:52.000Z</time>
        <extensions>
          <ns3:TrackPointExtension>
            <ns3:atemp>28.0</ns3:atemp>
            <ns3:hr>90</ns3:hr>
            <ns3:cad>53</ns3:cad>
          </ns3:TrackPointExtension>
        </extensions>
      </trkpt>
      <trkpt lat="20.0356036238372325897216796875" lon="110.4251140169799327850341796875">
        <ele>-0.4000000059604644775390625</ele>
        <time>2025-03-30T02:13:53.000Z</time>
        <extensions>
          <ns3:TrackPointExtension>
            <ns3:atemp>27.0</ns3:atemp>
            <ns3:hr>91</ns3:hr>
            <ns3:cad>53</ns3:cad>
          </ns3:TrackPointExtension>
        </extensions>
      </trkpt>
      <trkpt lat="20.0356064736843109130859375" lon="110.425118543207645416259765625">
        <ele>-0.60000002384185791015625</ele>
        <time>2025-03-30T02:13:54.000Z</time>
        <extensions>
          <ns3:TrackPointExtension>
            <ns3:atemp>27.0</ns3:atemp>
            <ns3:hr>91</ns3:hr>
            <ns3:cad>53</ns3:cad>
          </ns3:TrackPointExtension>
        </extensions>
      </trkpt>
      <trkpt lat="20.03560186363756656646728515625" lon="110.4251150228083133697509765625">
        <ele>-0.800000011920928955078125</ele>
        <time>2025-03-30T02:13:55.000Z</time>
        <extensions>
          <ns3:TrackPointExtension>
            <ns3:atemp>28.0</ns3:atemp>
            <ns3:hr>91</ns3:hr>
            <ns3:cad>53</ns3:cad>
          </ns3:TrackPointExtension>
        </extensions>
      </trkpt>
      <trkpt lat="20.0356019474565982818603515625" lon="110.42511912994086742401123046875">
        <ele>-0.800000011920928955078125</ele>
        <time>2025-03-30T02:13:56.000Z</time>
        <extensions>
          <ns3:TrackPointExtension>
            <ns3:atemp>28.0</ns3:atemp>
            <ns3:hr>92</ns3:hr>
            <ns3:cad>53</ns3:cad>
          </ns3:TrackPointExtension>
        </extensions>
      </trkpt>
      <trkpt lat="20.0355892069637775421142578125" lon="110.42510840110480785369873046875">
        <ele>-0.800000011920928955078125</ele>
        <time>2025-03-30T02:13:57.000Z</time>
        <extensions>
          <ns3:TrackPointExtension>
            <ns3:atemp>28.0</ns3:atemp>
            <ns3:hr>92</ns3:hr>
            <ns3:cad>53</ns3:cad>
          </ns3:TrackPointExtension>
        </extensions>
      </trkpt>
      <trkpt lat="20.03558761440217494964599609375" lon="110.4251099936664104461669921875">
        <ele>-0.800000011920928955078125</ele>
        <time>2025-03-30T02:13:58.000Z</time>
        <extensions>
          <ns3:TrackPointExtension>
            <ns3:atemp>28.0</ns3:atemp>
            <ns3:hr>93</ns3:hr>
            <ns3:cad>53</ns3:cad>
          </ns3:TrackPointExtension>
        </extensions>
      </trkpt>
      <trkpt lat="20.03557973541319370269775390625" lon="110.42510052211582660675048828125">
        <ele>-0.60000002384185791015625</ele>
        <time>2025-03-30T02:13:59.000Z</time>
        <extensions>
          <ns3:TrackPointExtension>
            <ns3:atemp>28.0</ns3:atemp>
            <ns3:hr>93</ns3:hr>
            <ns3:cad>53</ns3:cad>
          </ns3:TrackPointExtension>
        </extensions>
      </trkpt>
      <trkpt lat="20.0355687551200389862060546875" lon="110.4250954091548919677734375">
        <ele>-0.4000000059604644775390625</ele>
        <time>2025-03-30T02:14:00.000Z</time>
        <extensions>
          <ns3:TrackPointExtension>
            <ns3:atemp>28.0</ns3:atemp>
            <ns3:hr>93</ns3:hr>
            <ns3:cad>52</ns3:cad>
          </ns3:TrackPointExtension>
        </extensions>
      </trkpt>
      <trkpt lat="20.03555693663656711578369140625" lon="110.42508535087108612060546875">
        <ele>-0.4000000059604644775390625</ele>
        <time>2025-03-30T02:14:01.000Z</time>
        <extensions>
          <ns3:TrackPointExtension>
            <ns3:atemp>28.0</ns3:atemp>
            <ns3:hr>94</ns3:hr>
            <ns3:cad>52</ns3:cad>
          </ns3:TrackPointExtension>
        </extensions>
      </trkpt>
      <trkpt lat="20.03554956056177616119384765625" lon="110.42507596313953399658203125">
        <ele>-0.4000000059604644775390625</ele>
        <time>2025-03-30T02:14:02.000Z</time>
        <extensions>
          <ns3:TrackPointExtension>
            <ns3:atemp>27.0</ns3:atemp>
            <ns3:hr>94</ns3:hr>
            <ns3:cad>52</ns3:cad>
          </ns3:TrackPointExtension>
        </extensions>
      </trkpt>
      <trkpt lat="20.03554251976311206817626953125" lon="110.42506800033152103424072265625">
        <ele>-0.4000000059604644775390625</ele>
        <time>2025-03-30T02:14:03.000Z</time>
        <extensions>
          <ns3:TrackPointExtension>
            <ns3:atemp>28.0</ns3:atemp>
            <ns3:hr>95</ns3:hr>
            <ns3:cad>51</ns3:cad>
          </ns3:TrackPointExtension>
        </extensions>
      </trkpt>
      <trkpt lat="20.03553698770701885223388671875" lon="110.425060205161571502685546875">
        <ele>-0.800000011920928955078125</ele>
        <time>2025-03-30T02:14:04.000Z</time>
        <extensions>
          <ns3:TrackPointExtension>
            <ns3:atemp>28.0</ns3:atemp>
            <ns3:hr>95</ns3:hr>
            <ns3:cad>51</ns3:cad>
          </ns3:TrackPointExtension>
        </extensions>
      </trkpt>
      <trkpt lat="20.035524331033229827880859375" lon="110.42504637502133846282958984375">
        <ele>-0.800000011920928955078125</ele>
        <time>2025-03-30T02:14:05.000Z</time>
        <extensions>
          <ns3:TrackPointExtension>
            <ns3:atemp>28.0</ns3:atemp>
            <ns3:hr>95</ns3:hr>
            <ns3:cad>51</ns3:cad>
          </ns3:TrackPointExtension>
        </extensions>
      </trkpt>
      <trkpt lat="20.03550119698047637939453125" lon="110.425026006996631622314453125">
        <ele>-0.800000011920928955078125</ele>
        <time>2025-03-30T02:14:06.000Z</time>
        <extensions>
          <ns3:TrackPointExtension>
            <ns3:atemp>27.0</ns3:atemp>
            <ns3:hr>95</ns3:hr>
            <ns3:cad>52</ns3:cad>
          </ns3:TrackPointExtension>
        </extensions>
      </trkpt>
      <trkpt lat="20.03550278954207897186279296875" lon="110.42502776719629764556884765625">
        <ele>-0.800000011920928955078125</ele>
        <time>2025-03-30T02:14:07.000Z</time>
        <extensions>
          <ns3:TrackPointExtension>
            <ns3:atemp>28.0</ns3:atemp>
            <ns3:hr>95</ns3:hr>
            <ns3:cad>52</ns3:cad>
          </ns3:TrackPointExtension>
        </extensions>
      </trkpt>
      <trkpt lat="20.0355018675327301025390625" lon="110.42503028176724910736083984375">
        <ele>-0.800000011920928955078125</ele>
        <time>2025-03-30T02:14:08.000Z</time>
        <extensions>
          <ns3:TrackPointExtension>
            <ns3:atemp>28.0</ns3:atemp>
            <ns3:hr>95</ns3:hr>
            <ns3:cad>52</ns3:cad>
          </ns3:TrackPointExtension>
        </extensions>
      </trkpt>
      <trkpt lat="20.03549809567630290985107421875" lon="110.42502676136791706085205078125">
        <ele>-0.4000000059604644775390625</ele>
        <time>2025-03-30T02:14:09.000Z</time>
        <extensions>
          <ns3:TrackPointExtension>
            <ns3:atemp>27.0</ns3:atemp>
            <ns3:hr>96</ns3:hr>
            <ns3:cad>52</ns3:cad>
          </ns3:TrackPointExtension>
        </extensions>
      </trkpt>
      <trkpt lat="20.035494826734066009521484375" lon="110.42502173222601413726806640625">
        <ele>-0.4000000059604644775390625</ele>
        <time>2025-03-30T02:14:10.000Z</time>
        <extensions>
          <ns3:TrackPointExtension>
            <ns3:atemp>28.0</ns3:atemp>
            <ns3:hr>96</ns3:hr>
            <ns3:cad>52</ns3:cad>
          </ns3:TrackPointExtension>
        </extensions>
      </trkpt>
      <trkpt lat="20.03549139015376567840576171875" lon="110.42501770891249179840087890625">
        <ele>-0.4000000059604644775390625</ele>
        <time>2025-03-30T02:14:11.000Z</time>
        <extensions>
          <ns3:TrackPointExtension>
            <ns3:atemp>27.0</ns3:atemp>
            <ns3:hr>95</ns3:hr>
            <ns3:cad>52</ns3:cad>
          </ns3:TrackPointExtension>
        </extensions>
      </trkpt>
      <trkpt lat="20.03548686392605304718017578125" lon="110.4250117577612400054931640625">
        <ele>-0.4000000059604644775390625</ele>
        <time>2025-03-30T02:14:12.000Z</time>
        <extensions>
          <ns3:TrackPointExtension>
            <ns3:atemp>28.0</ns3:atemp>
            <ns3:hr>95</ns3:hr>
            <ns3:cad>53</ns3:cad>
          </ns3:TrackPointExtension>
        </extensions>
      </trkpt>
      <trkpt lat="20.035482756793498992919921875" lon="110.4250080697238445281982421875">
        <ele>-0.4000000059604644775390625</ele>
        <time>2025-03-30T02:14:13.000Z</time>
        <extensions>
          <ns3:TrackPointExtension>
            <ns3:atemp>28.0</ns3:atemp>
            <ns3:hr>95</ns3:hr>
            <ns3:cad>53</ns3:cad>
          </ns3:TrackPointExtension>
        </extensions>
      </trkpt>
      <trkpt lat="20.03547697328031063079833984375" lon="110.4250053875148296356201171875">
        <ele>-0.20000000298023223876953125</ele>
        <time>2025-03-30T02:14:14.000Z</time>
        <extensions>
          <ns3:TrackPointExtension>
            <ns3:atemp>27.0</ns3:atemp>
            <ns3:hr>95</ns3:hr>
            <ns3:cad>53</ns3:cad>
          </ns3:TrackPointExtension>
        </extensions>
      </trkpt>
      <trkpt lat="20.03546942956745624542236328125" lon="110.42499859817326068878173828125">
        <ele>0</ele>
        <time>2025-03-30T02:14:15.000Z</time>
        <extensions>
          <ns3:TrackPointExtension>
            <ns3:atemp>27.0</ns3:atemp>
            <ns3:hr>94</ns3:hr>
            <ns3:cad>53</ns3:cad>
          </ns3:TrackPointExtension>
        </extensions>
      </trkpt>
      <trkpt lat="20.0354614667594432830810546875" lon="110.424992144107818603515625">
        <ele>0</ele>
        <time>2025-03-30T02:14:16.000Z</time>
        <extensions>
          <ns3:TrackPointExtension>
            <ns3:atemp>27.0</ns3:atemp>
            <ns3:hr>94</ns3:hr>
            <ns3:cad>53</ns3:cad>
          </ns3:TrackPointExtension>
        </extensions>
      </trkpt>
      <trkpt lat="20.03545383922755718231201171875" lon="110.424984432756900787353515625">
        <ele>0</ele>
        <time>2025-03-30T02:14:17.000Z</time>
        <extensions>
          <ns3:TrackPointExtension>
            <ns3:atemp>27.0</ns3:atemp>
            <ns3:hr>94</ns3:hr>
            <ns3:cad>51</ns3:cad>
          </ns3:TrackPointExtension>
        </extensions>
      </trkpt>
      <trkpt lat="20.0354436971247196197509765625" lon="110.42497579939663410186767578125">
        <ele>0</ele>
        <time>2025-03-30T02:14:18.000Z</time>
        <extensions>
          <ns3:TrackPointExtension>
            <ns3:atemp>27.0</ns3:atemp>
            <ns3:hr>94</ns3:hr>
            <ns3:cad>51</ns3:cad>
          </ns3:TrackPointExtension>
        </extensions>
      </trkpt>
      <trkpt lat="20.03543489612638950347900390625" lon="110.42496574111282825469970703125">
        <ele>-0.20000000298023223876953125</ele>
        <time>2025-03-30T02:14:19.000Z</time>
        <extensions>
          <ns3:TrackPointExtension>
            <ns3:atemp>27.0</ns3:atemp>
            <ns3:hr>94</ns3:hr>
            <ns3:cad>51</ns3:cad>
          </ns3:TrackPointExtension>
        </extensions>
      </trkpt>
      <trkpt lat="20.035427771508693695068359375" lon="110.424956940114498138427734375">
        <ele>-0.4000000059604644775390625</ele>
        <time>2025-03-30T02:14:20.000Z</time>
        <extensions>
          <ns3:TrackPointExtension>
            <ns3:atemp>27.0</ns3:atemp>
            <ns3:hr>94</ns3:hr>
            <ns3:cad>52</ns3:cad>
          </ns3:TrackPointExtension>
        </extensions>
      </trkpt>
      <trkpt lat="20.03541938960552215576171875" lon="110.4249497316777706146240234375">
        <ele>-0.4000000059604644775390625</ele>
        <time>2025-03-30T02:14:21.000Z</time>
        <extensions>
          <ns3:TrackPointExtension>
            <ns3:atemp>27.0</ns3:atemp>
            <ns3:hr>93</ns3:hr>
            <ns3:cad>52</ns3:cad>
          </ns3:TrackPointExtension>
        </extensions>
      </trkpt>
      <trkpt lat="20.03541938960552215576171875" lon="110.4249497316777706146240234375">
        <ele>-0.4000000059604644775390625</ele>
        <time>2025-03-30T02:14:22.000Z</time>
        <extensions>
          <ns3:TrackPointExtension>
            <ns3:atemp>27.0</ns3:atemp>
            <ns3:hr>93</ns3:hr>
            <ns3:cad>52</ns3:cad>
          </ns3:TrackPointExtension>
        </extensions>
      </trkpt>
      <trkpt lat="20.0354027934372425079345703125" lon="110.424936823546886444091796875">
        <ele>-0.20000000298023223876953125</ele>
        <time>2025-03-30T02:14:23.000Z</time>
        <extensions>
          <ns3:TrackPointExtension>
            <ns3:atemp>27.0</ns3:atemp>
            <ns3:hr>92</ns3:hr>
            <ns3:cad>53</ns3:cad>
          </ns3:TrackPointExtension>
        </extensions>
      </trkpt>
      <trkpt lat="20.03539466299116611480712890625" lon="110.4249302856624126434326171875">
        <ele>-0.20000000298023223876953125</ele>
        <time>2025-03-30T02:14:24.000Z</time>
        <extensions>
          <ns3:TrackPointExtension>
            <ns3:atemp>27.0</ns3:atemp>
            <ns3:hr>92</ns3:hr>
            <ns3:cad>53</ns3:cad>
          </ns3:TrackPointExtension>
        </extensions>
      </trkpt>
      <trkpt lat="20.03539466299116611480712890625" lon="110.4249302856624126434326171875">
        <ele>0</ele>
        <time>2025-03-30T02:14:25.000Z</time>
        <extensions>
          <ns3:TrackPointExtension>
            <ns3:atemp>27.0</ns3:atemp>
            <ns3:hr>92</ns3:hr>
            <ns3:cad>53</ns3:cad>
          </ns3:TrackPointExtension>
        </extensions>
      </trkpt>
      <trkpt lat="20.03538007847964763641357421875" lon="110.42491863481700420379638671875">
        <ele>0</ele>
        <time>2025-03-30T02:14:26.000Z</time>
        <extensions>
          <ns3:TrackPointExtension>
            <ns3:atemp>27.0</ns3:atemp>
            <ns3:hr>92</ns3:hr>
            <ns3:cad>53</ns3:cad>
          </ns3:TrackPointExtension>
        </extensions>
      </trkpt>
      <trkpt lat="20.035374797880649566650390625" lon="110.42491394095122814178466796875">
        <ele>0</ele>
        <time>2025-03-30T02:14:27.000Z</time>
        <extensions>
          <ns3:TrackPointExtension>
            <ns3:atemp>27.0</ns3:atemp>
            <ns3:hr>92</ns3:hr>
            <ns3:cad>53</ns3:cad>
          </ns3:TrackPointExtension>
        </extensions>
      </trkpt>
      <trkpt lat="20.035374797880649566650390625" lon="110.42491394095122814178466796875">
        <ele>-0.20000000298023223876953125</ele>
        <time>2025-03-30T02:14:28.000Z</time>
        <extensions>
          <ns3:TrackPointExtension>
            <ns3:atemp>27.0</ns3:atemp>
            <ns3:hr>92</ns3:hr>
            <ns3:cad>53</ns3:cad>
          </ns3:TrackPointExtension>
        </extensions>
      </trkpt>
      <trkpt lat="20.0353535078465938568115234375" lon="110.4248893819749355316162109375">
        <ele>-0.60000002384185791015625</ele>
        <time>2025-03-30T02:14:29.000Z</time>
        <extensions>
          <ns3:TrackPointExtension>
            <ns3:atemp>27.0</ns3:atemp>
            <ns3:hr>91</ns3:hr>
            <ns3:cad>53</ns3:cad>
          </ns3:TrackPointExtension>
        </extensions>
      </trkpt>
      <trkpt lat="20.035342276096343994140625" lon="110.42487747967243194580078125">
        <ele>-0.800000011920928955078125</ele>
        <time>2025-03-30T02:14:30.000Z</time>
        <extensions>
          <ns3:TrackPointExtension>
            <ns3:atemp>27.0</ns3:atemp>
            <ns3:hr>91</ns3:hr>
            <ns3:cad>53</ns3:cad>
          </ns3:TrackPointExtension>
        </extensions>
      </trkpt>
      <trkpt lat="20.03534001298248767852783203125" lon="110.424877814948558807373046875">
        <ele>-0.800000011920928955078125</ele>
        <time>2025-03-30T02:14:31.000Z</time>
        <extensions>
          <ns3:TrackPointExtension>
            <ns3:atemp>27.0</ns3:atemp>
            <ns3:hr>91</ns3:hr>
            <ns3:cad>53</ns3:cad>
          </ns3:TrackPointExtension>
        </extensions>
      </trkpt>
      <trkpt lat="20.035335235297679901123046875" lon="110.4248754680156707763671875">
        <ele>-0.800000011920928955078125</ele>
        <time>2025-03-30T02:14:32.000Z</time>
        <extensions>
          <ns3:TrackPointExtension>
            <ns3:atemp>27.0</ns3:atemp>
            <ns3:hr>91</ns3:hr>
            <ns3:cad>52</ns3:cad>
          </ns3:TrackPointExtension>
        </extensions>
      </trkpt>
      <trkpt lat="20.03533355891704559326171875" lon="110.42487211525440216064453125">
        <ele>-1</ele>
        <time>2025-03-30T02:14:33.000Z</time>
        <extensions>
          <ns3:TrackPointExtension>
            <ns3:atemp>27.0</ns3:atemp>
            <ns3:hr>91</ns3:hr>
            <ns3:cad>52</ns3:cad>
          </ns3:TrackPointExtension>
        </extensions>
      </trkpt>
      <trkpt lat="20.0353327207267284393310546875" lon="110.42487152852118015289306640625">
        <ele>-1</ele>
        <time>2025-03-30T02:14:34.000Z</time>
        <extensions>
          <ns3:TrackPointExtension>
            <ns3:atemp>27.0</ns3:atemp>
            <ns3:hr>91</ns3:hr>
            <ns3:cad>0</ns3:cad>
          </ns3:TrackPointExtension>
        </extensions>
      </trkpt>
      <trkpt lat="20.03533397801220417022705078125" lon="110.42487069033086299896240234375">
        <ele>-0.800000011920928955078125</ele>
        <time>2025-03-30T02:14:35.000Z</time>
        <extensions>
          <ns3:TrackPointExtension>
            <ns3:atemp>27.0</ns3:atemp>
            <ns3:hr>91</ns3:hr>
            <ns3:cad>0</ns3:cad>
          </ns3:TrackPointExtension>
        </extensions>
      </trkpt>
      <trkpt lat="20.0353340618312358856201171875" lon="110.42487035505473613739013671875">
        <ele>-0.800000011920928955078125</ele>
        <time>2025-03-30T02:14:36.000Z</time>
        <extensions>
          <ns3:TrackPointExtension>
            <ns3:atemp>27.0</ns3:atemp>
            <ns3:hr>90</ns3:hr>
            <ns3:cad>0</ns3:cad>
          </ns3:TrackPointExtension>
        </extensions>
      </trkpt>
      <trkpt lat="20.0353340618312358856201171875" lon="110.4248701035976409912109375">
        <ele>-0.800000011920928955078125</ele>
        <time>2025-03-30T02:14:37.000Z</time>
        <extensions>
          <ns3:TrackPointExtension>
            <ns3:atemp>27.0</ns3:atemp>
            <ns3:hr>90</ns3:hr>
            <ns3:cad>0</ns3:cad>
          </ns3:TrackPointExtension>
        </extensions>
      </trkpt>
      <trkpt lat="20.035333894193172454833984375" lon="110.42486985214054584503173828125">
        <ele>-1</ele>
        <time>2025-03-30T02:14:38.000Z</time>
        <extensions>
          <ns3:TrackPointExtension>
            <ns3:atemp>27.0</ns3:atemp>
            <ns3:hr>90</ns3:hr>
            <ns3:cad>0</ns3:cad>
          </ns3:TrackPointExtension>
        </extensions>
      </trkpt>
      <trkpt lat="20.0353337265551090240478515625" lon="110.42486951686441898345947265625">
        <ele>-1</ele>
        <time>2025-03-30T02:14:39.000Z</time>
        <extensions>
          <ns3:TrackPointExtension>
            <ns3:atemp>27.0</ns3:atemp>
            <ns3:hr>90</ns3:hr>
            <ns3:cad>0</ns3:cad>
          </ns3:TrackPointExtension>
        </extensions>
      </trkpt>
      <trkpt lat="20.03533355891704559326171875" lon="110.4248692654073238372802734375">
        <ele>-1</ele>
        <time>2025-03-30T02:14:40.000Z</time>
        <extensions>
          <ns3:TrackPointExtension>
            <ns3:atemp>27.0</ns3:atemp>
            <ns3:hr>90</ns3:hr>
            <ns3:cad>0</ns3:cad>
          </ns3:TrackPointExtension>
        </extensions>
      </trkpt>
      <trkpt lat="20.03533330745995044708251953125" lon="110.42486901395022869110107421875">
        <ele>-0.800000011920928955078125</ele>
        <time>2025-03-30T02:14:41.000Z</time>
        <extensions>
          <ns3:TrackPointExtension>
            <ns3:atemp>27.0</ns3:atemp>
            <ns3:hr>90</ns3:hr>
            <ns3:cad>0</ns3:cad>
          </ns3:TrackPointExtension>
        </extensions>
      </trkpt>
      <trkpt lat="20.035333223640918731689453125" lon="110.424868762493133544921875">
        <ele>-0.4000000059604644775390625</ele>
        <time>2025-03-30T02:14:42.000Z</time>
        <extensions>
          <ns3:TrackPointExtension>
            <ns3:atemp>27.0</ns3:atemp>
            <ns3:hr>90</ns3:hr>
            <ns3:cad>0</ns3:cad>
          </ns3:TrackPointExtension>
        </extensions>
      </trkpt>
      <trkpt lat="20.03533297218382358551025390625" lon="110.424868427217006683349609375">
        <ele>-0.20000000298023223876953125</ele>
        <time>2025-03-30T02:14:43.000Z</time>
        <extensions>
          <ns3:TrackPointExtension>
            <ns3:atemp>27.0</ns3:atemp>
            <ns3:hr>90</ns3:hr>
            <ns3:cad>0</ns3:cad>
          </ns3:TrackPointExtension>
        </extensions>
      </trkpt>
      <trkpt lat="20.0353266857564449310302734375" lon="110.42486004531383514404296875">
        <ele>0</ele>
        <time>2025-03-30T02:14:44.000Z</time>
        <extensions>
          <ns3:TrackPointExtension>
            <ns3:atemp>27.0</ns3:atemp>
            <ns3:hr>90</ns3:hr>
            <ns3:cad>0</ns3:cad>
          </ns3:TrackPointExtension>
        </extensions>
      </trkpt>
      <trkpt lat="20.03531872294843196868896484375" lon="110.42484923265874385833740234375">
        <ele>0</ele>
        <time>2025-03-30T02:14:45.000Z</time>
        <extensions>
          <ns3:TrackPointExtension>
            <ns3:atemp>27.0</ns3:atemp>
            <ns3:hr>90</ns3:hr>
            <ns3:cad>0</ns3:cad>
          </ns3:TrackPointExtension>
        </extensions>
      </trkpt>
      <trkpt lat="20.03531034104526042938232421875" lon="110.42484068311750888824462890625">
        <ele>0.20000000298023223876953125</ele>
        <time>2025-03-30T02:14:46.000Z</time>
        <extensions>
          <ns3:TrackPointExtension>
            <ns3:atemp>27.0</ns3:atemp>
            <ns3:hr>90</ns3:hr>
            <ns3:cad>0</ns3:cad>
          </ns3:TrackPointExtension>
        </extensions>
      </trkpt>
      <trkpt lat="20.03530279733240604400634765625" lon="110.4248333908617496490478515625">
        <ele>0.60000002384185791015625</ele>
        <time>2025-03-30T02:14:47.000Z</time>
        <extensions>
          <ns3:TrackPointExtension>
            <ns3:atemp>27.0</ns3:atemp>
            <ns3:hr>90</ns3:hr>
            <ns3:cad>0</ns3:cad>
          </ns3:TrackPointExtension>
        </extensions>
      </trkpt>
      <trkpt lat="20.03529466688632965087890625" lon="110.42482492513954639434814453125">
        <ele>1</ele>
        <time>2025-03-30T02:14:48.000Z</time>
        <extensions>
          <ns3:TrackPointExtension>
            <ns3:atemp>27.0</ns3:atemp>
            <ns3:hr>90</ns3:hr>
            <ns3:cad>53</ns3:cad>
          </ns3:TrackPointExtension>
        </extensions>
      </trkpt>
      <trkpt lat="20.03528620116412639617919921875" lon="110.424815453588962554931640625">
        <ele>1</ele>
        <time>2025-03-30T02:14:49.000Z</time>
        <extensions>
          <ns3:TrackPointExtension>
            <ns3:atemp>27.0</ns3:atemp>
            <ns3:hr>90</ns3:hr>
            <ns3:cad>53</ns3:cad>
          </ns3:TrackPointExtension>
        </extensions>
      </trkpt>
      <trkpt lat="20.0352770648896694183349609375" lon="110.42480682022869586944580078125">
        <ele>1</ele>
        <time>2025-03-30T02:14:50.000Z</time>
        <extensions>
          <ns3:TrackPointExtension>
            <ns3:atemp>27.0</ns3:atemp>
            <ns3:hr>90</ns3:hr>
            <ns3:cad>53</ns3:cad>
          </ns3:TrackPointExtension>
        </extensions>
      </trkpt>
      <trkpt lat="20.0352690182626247406005859375" lon="110.4248005338013172149658203125">
        <ele>1</ele>
        <time>2025-03-30T02:14:51.000Z</time>
        <extensions>
          <ns3:TrackPointExtension>
            <ns3:atemp>27.0</ns3:atemp>
            <ns3:hr>90</ns3:hr>
            <ns3:cad>53</ns3:cad>
          </ns3:TrackPointExtension>
        </extensions>
      </trkpt>
      <trkpt lat="20.03526072017848491668701171875" lon="110.42479290626943111419677734375">
        <ele>1</ele>
        <time>2025-03-30T02:14:52.000Z</time>
        <extensions>
          <ns3:TrackPointExtension>
            <ns3:atemp>27.0</ns3:atemp>
            <ns3:hr>90</ns3:hr>
            <ns3:cad>53</ns3:cad>
          </ns3:TrackPointExtension>
        </extensions>
      </trkpt>
      <trkpt lat="20.03525351174175739288330078125" lon="110.4247837699949741363525390625">
        <ele>1</ele>
        <time>2025-03-30T02:14:53.000Z</time>
        <extensions>
          <ns3:TrackPointExtension>
            <ns3:atemp>27.0</ns3:atemp>
            <ns3:hr>90</ns3:hr>
            <ns3:cad>53</ns3:cad>
          </ns3:TrackPointExtension>
        </extensions>
      </trkpt>
      <trkpt lat="20.0352462194859981536865234375" lon="110.42477312497794628143310546875">
        <ele>1.2000000476837158203125</ele>
        <time>2025-03-30T02:14:54.000Z</time>
        <extensions>
          <ns3:TrackPointExtension>
            <ns3:atemp>27.0</ns3:atemp>
            <ns3:hr>90</ns3:hr>
            <ns3:cad>53</ns3:cad>
          </ns3:TrackPointExtension>
        </extensions>
      </trkpt>
      <trkpt lat="20.03524160943925380706787109375" lon="110.4247626475989818572998046875">
        <ele>1.39999997615814208984375</ele>
        <time>2025-03-30T02:14:55.000Z</time>
        <extensions>
          <ns3:TrackPointExtension>
            <ns3:atemp>27.0</ns3:atemp>
            <ns3:hr>90</ns3:hr>
            <ns3:cad>53</ns3:cad>
          </ns3:TrackPointExtension>
        </extensions>
      </trkpt>
      <trkpt lat="20.035235993564128875732421875" lon="110.424750745296478271484375">
        <ele>1.39999997615814208984375</ele>
        <time>2025-03-30T02:14:56.000Z</time>
        <extensions>
          <ns3:TrackPointExtension>
            <ns3:atemp>27.0</ns3:atemp>
            <ns3:hr>90</ns3:hr>
            <ns3:cad>53</ns3:cad>
          </ns3:TrackPointExtension>
        </extensions>
      </trkpt>
      <trkpt lat="20.03522970713675022125244140625" lon="110.42474060319364070892333984375">
        <ele>1.39999997615814208984375</ele>
        <time>2025-03-30T02:14:57.000Z</time>
        <extensions>
          <ns3:TrackPointExtension>
            <ns3:atemp>27.0</ns3:atemp>
            <ns3:hr>91</ns3:hr>
            <ns3:cad>53</ns3:cad>
          </ns3:TrackPointExtension>
        </extensions>
      </trkpt>
      <trkpt lat="20.03522350452840328216552734375" lon="110.42473104782402515411376953125">
        <ele>1.39999997615814208984375</ele>
        <time>2025-03-30T02:14:58.000Z</time>
        <extensions>
          <ns3:TrackPointExtension>
            <ns3:atemp>27.0</ns3:atemp>
            <ns3:hr>91</ns3:hr>
            <ns3:cad>54</ns3:cad>
          </ns3:TrackPointExtension>
        </extensions>
      </trkpt>
      <trkpt lat="20.0352170504629611968994140625" lon="110.4247225821018218994140625">
        <ele>1.39999997615814208984375</ele>
        <time>2025-03-30T02:14:59.000Z</time>
        <extensions>
          <ns3:TrackPointExtension>
            <ns3:atemp>27.0</ns3:atemp>
            <ns3:hr>91</ns3:hr>
            <ns3:cad>54</ns3:cad>
          </ns3:TrackPointExtension>
        </extensions>
      </trkpt>
      <trkpt lat="20.03521026112139225006103515625" lon="110.4247123561799526214599609375">
        <ele>1.39999997615814208984375</ele>
        <time>2025-03-30T02:15:00.000Z</time>
        <extensions>
          <ns3:TrackPointExtension>
            <ns3:atemp>27.0</ns3:atemp>
            <ns3:hr>91</ns3:hr>
            <ns3:cad>54</ns3:cad>
          </ns3:TrackPointExtension>
        </extensions>
      </trkpt>
      <trkpt lat="20.03520389087498188018798828125" lon="110.42470321990549564361572265625">
        <ele>1.39999997615814208984375</ele>
        <time>2025-03-30T02:15:01.000Z</time>
        <extensions>
          <ns3:TrackPointExtension>
            <ns3:atemp>27.0</ns3:atemp>
            <ns3:hr>91</ns3:hr>
            <ns3:cad>54</ns3:cad>
          </ns3:TrackPointExtension>
        </extensions>
      </trkpt>
      <trkpt lat="20.03519835881888866424560546875" lon="110.4246935807168483734130859375">
        <ele>1.60000002384185791015625</ele>
        <time>2025-03-30T02:15:02.000Z</time>
        <extensions>
          <ns3:TrackPointExtension>
            <ns3:atemp>27.0</ns3:atemp>
            <ns3:hr>92</ns3:hr>
            <ns3:cad>54</ns3:cad>
          </ns3:TrackPointExtension>
        </extensions>
      </trkpt>
      <trkpt lat="20.035193748772144317626953125" lon="110.424682684242725372314453125">
        <ele>1.60000002384185791015625</ele>
        <time>2025-03-30T02:15:03.000Z</time>
        <extensions>
          <ns3:TrackPointExtension>
            <ns3:atemp>27.0</ns3:atemp>
            <ns3:hr>92</ns3:hr>
            <ns3:cad>54</ns3:cad>
          </ns3:TrackPointExtension>
        </extensions>
      </trkpt>
      <trkpt lat="20.03519014455378055572509765625" lon="110.4246704466640949249267578125">
        <ele>1.60000002384185791015625</ele>
        <time>2025-03-30T02:15:04.000Z</time>
        <extensions>
          <ns3:TrackPointExtension>
            <ns3:atemp>26.0</ns3:atemp>
            <ns3:hr>92</ns3:hr>
            <ns3:cad>54</ns3:cad>
          </ns3:TrackPointExtension>
        </extensions>
      </trkpt>
      <trkpt lat="20.03518595360219478607177734375" lon="110.42465728707611560821533203125">
        <ele>1.60000002384185791015625</ele>
        <time>2025-03-30T02:15:05.000Z</time>
        <extensions>
          <ns3:TrackPointExtension>
            <ns3:atemp>27.0</ns3:atemp>
            <ns3:hr>93</ns3:hr>
            <ns3:cad>54</ns3:cad>
          </ns3:TrackPointExtension>
        </extensions>
      </trkpt>
      <trkpt lat="20.03518327139317989349365234375" lon="110.42464622296392917633056640625">
        <ele>1.60000002384185791015625</ele>
        <time>2025-03-30T02:15:06.000Z</time>
        <extensions>
          <ns3:TrackPointExtension>
            <ns3:atemp>27.0</ns3:atemp>
            <ns3:hr>93</ns3:hr>
            <ns3:cad>54</ns3:cad>
          </ns3:TrackPointExtension>
        </extensions>
      </trkpt>
      <trkpt lat="20.035178326070308685302734375" lon="110.42463482357561588287353515625">
        <ele>1.60000002384185791015625</ele>
        <time>2025-03-30T02:15:07.000Z</time>
        <extensions>
          <ns3:TrackPointExtension>
            <ns3:atemp>26.0</ns3:atemp>
            <ns3:hr>92</ns3:hr>
            <ns3:cad>54</ns3:cad>
          </ns3:TrackPointExtension>
        </extensions>
      </trkpt>
      <trkpt lat="20.03517304547131061553955078125" lon="110.4246241785585880279541015625">
        <ele>1.60000002384185791015625</ele>
        <time>2025-03-30T02:15:08.000Z</time>
        <extensions>
          <ns3:TrackPointExtension>
            <ns3:atemp>26.0</ns3:atemp>
            <ns3:hr>87</ns3:hr>
            <ns3:cad>54</ns3:cad>
          </ns3:TrackPointExtension>
        </extensions>
      </trkpt>
      <trkpt lat="20.03516885451972484588623046875" lon="110.4246141202747821807861328125">
        <ele>1.60000002384185791015625</ele>
        <time>2025-03-30T02:15:09.000Z</time>
        <extensions>
          <ns3:TrackPointExtension>
            <ns3:atemp>26.0</ns3:atemp>
            <ns3:hr>85</ns3:hr>
            <ns3:cad>54</ns3:cad>
          </ns3:TrackPointExtension>
        </extensions>
      </trkpt>
      <trkpt lat="20.03516457974910736083984375" lon="110.42460280470550060272216796875">
        <ele>1.60000002384185791015625</ele>
        <time>2025-03-30T02:15:10.000Z</time>
        <extensions>
          <ns3:TrackPointExtension>
            <ns3:atemp>27.0</ns3:atemp>
            <ns3:hr>84</ns3:hr>
            <ns3:cad>55</ns3:cad>
          </ns3:TrackPointExtension>
        </extensions>
      </trkpt>
      <trkpt lat="20.03516030497848987579345703125" lon="110.424591489136219024658203125">
        <ele>1.60000002384185791015625</ele>
        <time>2025-03-30T02:15:11.000Z</time>
        <extensions>
          <ns3:TrackPointExtension>
            <ns3:atemp>26.0</ns3:atemp>
            <ns3:hr>84</ns3:hr>
            <ns3:cad>55</ns3:cad>
          </ns3:TrackPointExtension>
        </extensions>
      </trkpt>
      <trkpt lat="20.03515611402690410614013671875" lon="110.4245795868337154388427734375">
        <ele>1.60000002384185791015625</ele>
        <time>2025-03-30T02:15:12.000Z</time>
        <extensions>
          <ns3:TrackPointExtension>
            <ns3:atemp>26.0</ns3:atemp>
            <ns3:hr>84</ns3:hr>
            <ns3:cad>55</ns3:cad>
          </ns3:TrackPointExtension>
        </extensions>
      </trkpt>
      <trkpt lat="20.03515292890369892120361328125" lon="110.42456860654056072235107421875">
        <ele>1.60000002384185791015625</ele>
        <time>2025-03-30T02:15:13.000Z</time>
        <extensions>
          <ns3:TrackPointExtension>
            <ns3:atemp>26.0</ns3:atemp>
            <ns3:hr>84</ns3:hr>
            <ns3:cad>55</ns3:cad>
          </ns3:TrackPointExtension>
        </extensions>
      </trkpt>
      <trkpt lat="20.035149492323398590087890625" lon="110.424557290971279144287109375">
        <ele>1.60000002384185791015625</ele>
        <time>2025-03-30T02:15:14.000Z</time>
        <extensions>
          <ns3:TrackPointExtension>
            <ns3:atemp>26.0</ns3:atemp>
            <ns3:hr>84</ns3:hr>
            <ns3:cad>55</ns3:cad>
          </ns3:TrackPointExtension>
        </extensions>
      </trkpt>
      <trkpt lat="20.0351463072001934051513671875" lon="110.42454446665942668914794921875">
        <ele>1.60000002384185791015625</ele>
        <time>2025-03-30T02:15:15.000Z</time>
        <extensions>
          <ns3:TrackPointExtension>
            <ns3:atemp>26.0</ns3:atemp>
            <ns3:hr>84</ns3:hr>
            <ns3:cad>54</ns3:cad>
          </ns3:TrackPointExtension>
        </extensions>
      </trkpt>
      <trkpt lat="20.03514421172440052032470703125" lon="110.42453289963304996490478515625">
        <ele>1.60000002384185791015625</ele>
        <time>2025-03-30T02:15:16.000Z</time>
        <extensions>
          <ns3:TrackPointExtension>
            <ns3:atemp>26.0</ns3:atemp>
            <ns3:hr>83</ns3:hr>
            <ns3:cad>54</ns3:cad>
          </ns3:TrackPointExtension>
        </extensions>
      </trkpt>
      <trkpt lat="20.03514220006763935089111328125" lon="110.4245219193398952484130859375">
        <ele>1.7999999523162841796875</ele>
        <time>2025-03-30T02:15:17.000Z</time>
        <extensions>
          <ns3:TrackPointExtension>
            <ns3:atemp>26.0</ns3:atemp>
            <ns3:hr>83</ns3:hr>
            <ns3:cad>54</ns3:cad>
          </ns3:TrackPointExtension>
        </extensions>
      </trkpt>
      <trkpt lat="20.03513884730637073516845703125" lon="110.42450976558029651641845703125">
        <ele>2</ele>
        <time>2025-03-30T02:15:18.000Z</time>
        <extensions>
          <ns3:TrackPointExtension>
            <ns3:atemp>26.0</ns3:atemp>
            <ns3:hr>82</ns3:hr>
            <ns3:cad>54</ns3:cad>
          </ns3:TrackPointExtension>
        </extensions>
      </trkpt>
      <trkpt lat="20.0351345725357532501220703125" lon="110.42450004257261753082275390625">
        <ele>2.2000000476837158203125</ele>
        <time>2025-03-30T02:15:19.000Z</time>
        <extensions>
          <ns3:TrackPointExtension>
            <ns3:atemp>26.0</ns3:atemp>
            <ns3:hr>82</ns3:hr>
            <ns3:cad>54</ns3:cad>
          </ns3:TrackPointExtension>
        </extensions>
      </trkpt>
      <trkpt lat="20.03512971103191375732421875" lon="110.42449065484106540679931640625">
        <ele>2.2000000476837158203125</ele>
        <time>2025-03-30T02:15:20.000Z</time>
        <extensions>
          <ns3:TrackPointExtension>
            <ns3:atemp>26.0</ns3:atemp>
            <ns3:hr>82</ns3:hr>
            <ns3:cad>54</ns3:cad>
          </ns3:TrackPointExtension>
        </extensions>
      </trkpt>
      <trkpt lat="20.03512476570904254913330078125" lon="110.4244811832904815673828125">
        <ele>2.2000000476837158203125</ele>
        <time>2025-03-30T02:15:21.000Z</time>
        <extensions>
          <ns3:TrackPointExtension>
            <ns3:atemp>26.0</ns3:atemp>
            <ns3:hr>81</ns3:hr>
            <ns3:cad>54</ns3:cad>
          </ns3:TrackPointExtension>
        </extensions>
      </trkpt>
      <trkpt lat="20.0351209938526153564453125" lon="110.42447112500667572021484375">
        <ele>2.2000000476837158203125</ele>
        <time>2025-03-30T02:15:22.000Z</time>
        <extensions>
          <ns3:TrackPointExtension>
            <ns3:atemp>26.0</ns3:atemp>
            <ns3:hr>81</ns3:hr>
            <ns3:cad>54</ns3:cad>
          </ns3:TrackPointExtension>
        </extensions>
      </trkpt>
      <trkpt lat="20.035116970539093017578125" lon="110.42446148581802845001220703125">
        <ele>2.2000000476837158203125</ele>
        <time>2025-03-30T02:15:23.000Z</time>
        <extensions>
          <ns3:TrackPointExtension>
            <ns3:atemp>26.0</ns3:atemp>
            <ns3:hr>82</ns3:hr>
            <ns3:cad>54</ns3:cad>
          </ns3:TrackPointExtension>
        </extensions>
      </trkpt>
      <trkpt lat="20.03511571325361728668212890625" lon="110.4244505055248737335205078125">
        <ele>2.2000000476837158203125</ele>
        <time>2025-03-30T02:15:24.000Z</time>
        <extensions>
          <ns3:TrackPointExtension>
            <ns3:atemp>26.0</ns3:atemp>
            <ns3:hr>82</ns3:hr>
            <ns3:cad>54</ns3:cad>
          </ns3:TrackPointExtension>
        </extensions>
      </trkpt>
      <trkpt lat="20.03511370159685611724853515625" lon="110.4244374297559261322021484375">
        <ele>2.2000000476837158203125</ele>
        <time>2025-03-30T02:15:25.000Z</time>
        <extensions>
          <ns3:TrackPointExtension>
            <ns3:atemp>26.0</ns3:atemp>
            <ns3:hr>82</ns3:hr>
            <ns3:cad>53</ns3:cad>
          </ns3:TrackPointExtension>
        </extensions>
      </trkpt>
      <trkpt lat="20.035111606121063232421875" lon="110.42442762292921543121337890625">
        <ele>2.2000000476837158203125</ele>
        <time>2025-03-30T02:15:26.000Z</time>
        <extensions>
          <ns3:TrackPointExtension>
            <ns3:atemp>26.0</ns3:atemp>
            <ns3:hr>83</ns3:hr>
            <ns3:cad>53</ns3:cad>
          </ns3:TrackPointExtension>
        </extensions>
      </trkpt>
      <trkpt lat="20.03510900773108005523681640625" lon="110.42441857047379016876220703125">
        <ele>2.2000000476837158203125</ele>
        <time>2025-03-30T02:15:27.000Z</time>
        <extensions>
          <ns3:TrackPointExtension>
            <ns3:atemp>26.0</ns3:atemp>
            <ns3:hr>83</ns3:hr>
            <ns3:cad>53</ns3:cad>
          </ns3:TrackPointExtension>
        </extensions>
      </trkpt>
      <trkpt lat="20.03510481677949428558349609375" lon="110.4244087636470794677734375">
        <ele>2.2000000476837158203125</ele>
        <time>2025-03-30T02:15:28.000Z</time>
        <extensions>
          <ns3:TrackPointExtension>
            <ns3:atemp>26.0</ns3:atemp>
            <ns3:hr>83</ns3:hr>
            <ns3:cad>53</ns3:cad>
          </ns3:TrackPointExtension>
        </extensions>
      </trkpt>
      <trkpt lat="20.03510045818984508514404296875" lon="110.4243985377252101898193359375">
        <ele>2.2000000476837158203125</ele>
        <time>2025-03-30T02:15:29.000Z</time>
        <extensions>
          <ns3:TrackPointExtension>
            <ns3:atemp>26.0</ns3:atemp>
            <ns3:hr>83</ns3:hr>
            <ns3:cad>54</ns3:cad>
          </ns3:TrackPointExtension>
        </extensions>
      </trkpt>
      <trkpt lat="20.0350966863334178924560546875" lon="110.42438889853656291961669921875">
        <ele>2.2000000476837158203125</ele>
        <time>2025-03-30T02:15:30.000Z</time>
        <extensions>
          <ns3:TrackPointExtension>
            <ns3:atemp>26.0</ns3:atemp>
            <ns3:hr>83</ns3:hr>
            <ns3:cad>54</ns3:cad>
          </ns3:TrackPointExtension>
        </extensions>
      </trkpt>
      <trkpt lat="20.0350914895534515380859375" lon="110.4243787564337253570556640625">
        <ele>2.2000000476837158203125</ele>
        <time>2025-03-30T02:15:31.000Z</time>
        <extensions>
          <ns3:TrackPointExtension>
            <ns3:atemp>26.0</ns3:atemp>
            <ns3:hr>83</ns3:hr>
            <ns3:cad>53</ns3:cad>
          </ns3:TrackPointExtension>
        </extensions>
      </trkpt>
      <trkpt lat="20.035089142620563507080078125" lon="110.4243685305118560791015625">
        <ele>2.2000000476837158203125</ele>
        <time>2025-03-30T02:15:32.000Z</time>
        <extensions>
          <ns3:TrackPointExtension>
            <ns3:atemp>26.0</ns3:atemp>
            <ns3:hr>83</ns3:hr>
            <ns3:cad>53</ns3:cad>
          </ns3:TrackPointExtension>
        </extensions>
      </trkpt>
      <trkpt lat="20.0350866280496120452880859375" lon="110.42435771785676479339599609375">
        <ele>2.2000000476837158203125</ele>
        <time>2025-03-30T02:15:33.000Z</time>
        <extensions>
          <ns3:TrackPointExtension>
            <ns3:atemp>26.0</ns3:atemp>
            <ns3:hr>83</ns3:hr>
            <ns3:cad>53</ns3:cad>
          </ns3:TrackPointExtension>
        </extensions>
      </trkpt>
      <trkpt lat="20.0350834429264068603515625" lon="110.42434782721102237701416015625">
        <ele>2.2000000476837158203125</ele>
        <time>2025-03-30T02:15:34.000Z</time>
        <extensions>
          <ns3:TrackPointExtension>
            <ns3:atemp>26.0</ns3:atemp>
            <ns3:hr>84</ns3:hr>
            <ns3:cad>53</ns3:cad>
          </ns3:TrackPointExtension>
        </extensions>
      </trkpt>
      <trkpt lat="20.03508117981255054473876953125" lon="110.42433642782270908355712890625">
        <ele>2.2000000476837158203125</ele>
        <time>2025-03-30T02:15:35.000Z</time>
        <extensions>
          <ns3:TrackPointExtension>
            <ns3:atemp>26.0</ns3:atemp>
            <ns3:hr>85</ns3:hr>
            <ns3:cad>53</ns3:cad>
          </ns3:TrackPointExtension>
        </extensions>
      </trkpt>
      <trkpt lat="20.03507866524159908294677734375" lon="110.42432586662471294403076171875">
        <ele>2.2000000476837158203125</ele>
        <time>2025-03-30T02:15:36.000Z</time>
        <extensions>
          <ns3:TrackPointExtension>
            <ns3:atemp>26.0</ns3:atemp>
            <ns3:hr>85</ns3:hr>
            <ns3:cad>53</ns3:cad>
          </ns3:TrackPointExtension>
        </extensions>
      </trkpt>
      <trkpt lat="20.035074390470981597900390625" lon="110.42431664653122425079345703125">
        <ele>2.2000000476837158203125</ele>
        <time>2025-03-30T02:15:37.000Z</time>
        <extensions>
          <ns3:TrackPointExtension>
            <ns3:atemp>26.0</ns3:atemp>
            <ns3:hr>86</ns3:hr>
            <ns3:cad>53</ns3:cad>
          </ns3:TrackPointExtension>
        </extensions>
      </trkpt>
      <trkpt lat="20.03507061861455440521240234375" lon="110.42430818080902099609375">
        <ele>2</ele>
        <time>2025-03-30T02:15:38.000Z</time>
        <extensions>
          <ns3:TrackPointExtension>
            <ns3:atemp>26.0</ns3:atemp>
            <ns3:hr>86</ns3:hr>
            <ns3:cad>53</ns3:cad>
          </ns3:TrackPointExtension>
        </extensions>
      </trkpt>
      <trkpt lat="20.03506600856781005859375" lon="110.424299128353595733642578125">
        <ele>2</ele>
        <time>2025-03-30T02:15:39.000Z</time>
        <extensions>
          <ns3:TrackPointExtension>
            <ns3:atemp>26.0</ns3:atemp>
            <ns3:hr>86</ns3:hr>
            <ns3:cad>53</ns3:cad>
          </ns3:TrackPointExtension>
        </extensions>
      </trkpt>
      <trkpt lat="20.035062991082668304443359375" lon="110.4242899082601070404052734375">
        <ele>2</ele>
        <time>2025-03-30T02:15:40.000Z</time>
        <extensions>
          <ns3:TrackPointExtension>
            <ns3:atemp>26.0</ns3:atemp>
            <ns3:hr>86</ns3:hr>
            <ns3:cad>52</ns3:cad>
          </ns3:TrackPointExtension>
        </extensions>
      </trkpt>
      <trkpt lat="20.03506005741655826568603515625" lon="110.42427808977663516998291015625">
        <ele>2</ele>
        <time>2025-03-30T02:15:41.000Z</time>
        <extensions>
          <ns3:TrackPointExtension>
            <ns3:atemp>26.0</ns3:atemp>
            <ns3:hr>86</ns3:hr>
            <ns3:cad>52</ns3:cad>
          </ns3:TrackPointExtension>
        </extensions>
      </trkpt>
      <trkpt lat="20.0350574590265750885009765625" lon="110.42426568455994129180908203125">
        <ele>2</ele>
        <time>2025-03-30T02:15:42.000Z</time>
        <extensions>
          <ns3:TrackPointExtension>
            <ns3:atemp>26.0</ns3:atemp>
            <ns3:hr>85</ns3:hr>
            <ns3:cad>52</ns3:cad>
          </ns3:TrackPointExtension>
        </extensions>
      </trkpt>
      <trkpt lat="20.03505460917949676513671875" lon="110.42425277642905712127685546875">
        <ele>2</ele>
        <time>2025-03-30T02:15:43.000Z</time>
        <extensions>
          <ns3:TrackPointExtension>
            <ns3:atemp>26.0</ns3:atemp>
            <ns3:hr>85</ns3:hr>
            <ns3:cad>53</ns3:cad>
          </ns3:TrackPointExtension>
        </extensions>
      </trkpt>
      <trkpt lat="20.0350517593324184417724609375" lon="110.42424020357429981231689453125">
        <ele>2</ele>
        <time>2025-03-30T02:15:44.000Z</time>
        <extensions>
          <ns3:TrackPointExtension>
            <ns3:atemp>26.0</ns3:atemp>
            <ns3:hr>85</ns3:hr>
            <ns3:cad>53</ns3:cad>
          </ns3:TrackPointExtension>
        </extensions>
      </trkpt>
      <trkpt lat="20.0350490771234035491943359375" lon="110.42422771453857421875">
        <ele>2.2000000476837158203125</ele>
        <time>2025-03-30T02:15:45.000Z</time>
        <extensions>
          <ns3:TrackPointExtension>
            <ns3:atemp>26.0</ns3:atemp>
            <ns3:hr>85</ns3:hr>
            <ns3:cad>53</ns3:cad>
          </ns3:TrackPointExtension>
        </extensions>
      </trkpt>
      <trkpt lat="20.03504597581923007965087890625" lon="110.42421489022672176361083984375">
        <ele>2.400000095367431640625</ele>
        <time>2025-03-30T02:15:46.000Z</time>
        <extensions>
          <ns3:TrackPointExtension>
            <ns3:atemp>26.0</ns3:atemp>
            <ns3:hr>85</ns3:hr>
            <ns3:cad>53</ns3:cad>
          </ns3:TrackPointExtension>
        </extensions>
      </trkpt>
      <trkpt lat="20.03504253923892974853515625" lon="110.4242050834000110626220703125">
        <ele>2.599999904632568359375</ele>
        <time>2025-03-30T02:15:47.000Z</time>
        <extensions>
          <ns3:TrackPointExtension>
            <ns3:atemp>26.0</ns3:atemp>
            <ns3:hr>85</ns3:hr>
            <ns3:cad>53</ns3:cad>
          </ns3:TrackPointExtension>
        </extensions>
      </trkpt>
      <trkpt lat="20.03504027612507343292236328125" lon="110.42419645003974437713623046875">
        <ele>2.599999904632568359375</ele>
        <time>2025-03-30T02:15:48.000Z</time>
        <extensions>
          <ns3:TrackPointExtension>
            <ns3:atemp>26.0</ns3:atemp>
            <ns3:hr>85</ns3:hr>
            <ns3:cad>53</ns3:cad>
          </ns3:TrackPointExtension>
        </extensions>
      </trkpt>
      <trkpt lat="20.03503692336380481719970703125" lon="110.42418706230819225311279296875">
        <ele>2.599999904632568359375</ele>
        <time>2025-03-30T02:15:49.000Z</time>
        <extensions>
          <ns3:TrackPointExtension>
            <ns3:atemp>26.0</ns3:atemp>
            <ns3:hr>85</ns3:hr>
            <ns3:cad>53</ns3:cad>
          </ns3:TrackPointExtension>
        </extensions>
      </trkpt>
      <trkpt lat="20.03503373824059963226318359375" lon="110.424177087843418121337890625">
        <ele>2.7999999523162841796875</ele>
        <time>2025-03-30T02:15:50.000Z</time>
        <extensions>
          <ns3:TrackPointExtension>
            <ns3:atemp>26.0</ns3:atemp>
            <ns3:hr>86</ns3:hr>
            <ns3:cad>54</ns3:cad>
          </ns3:TrackPointExtension>
        </extensions>
      </trkpt>
      <trkpt lat="20.03503088839352130889892578125" lon="110.42416694574058055877685546875">
        <ele>2.7999999523162841796875</ele>
        <time>2025-03-30T02:15:51.000Z</time>
        <extensions>
          <ns3:TrackPointExtension>
            <ns3:atemp>26.0</ns3:atemp>
            <ns3:hr>87</ns3:hr>
            <ns3:cad>54</ns3:cad>
          </ns3:TrackPointExtension>
        </extensions>
      </trkpt>
      <trkpt lat="20.0350286252796649932861328125" lon="110.42415856383740901947021484375">
        <ele>2.7999999523162841796875</ele>
        <time>2025-03-30T02:15:52.000Z</time>
        <extensions>
          <ns3:TrackPointExtension>
            <ns3:atemp>26.0</ns3:atemp>
            <ns3:hr>88</ns3:hr>
            <ns3:cad>54</ns3:cad>
          </ns3:TrackPointExtension>
        </extensions>
      </trkpt>
      <trkpt lat="20.035025440156459808349609375" lon="110.42414867319166660308837890625">
        <ele>2.7999999523162841796875</ele>
        <time>2025-03-30T02:15:53.000Z</time>
        <extensions>
          <ns3:TrackPointExtension>
            <ns3:atemp>26.0</ns3:atemp>
            <ns3:hr>88</ns3:hr>
            <ns3:cad>54</ns3:cad>
          </ns3:TrackPointExtension>
        </extensions>
      </trkpt>
      <trkpt lat="20.03502083010971546173095703125" lon="110.4241393692791461944580078125">
        <ele>2.7999999523162841796875</ele>
        <time>2025-03-30T02:15:54.000Z</time>
        <extensions>
          <ns3:TrackPointExtension>
            <ns3:atemp>26.0</ns3:atemp>
            <ns3:hr>89</ns3:hr>
            <ns3:cad>53</ns3:cad>
          </ns3:TrackPointExtension>
        </extensions>
      </trkpt>
      <trkpt lat="20.03501714207231998443603515625" lon="110.4241306520998477935791015625">
        <ele>2.599999904632568359375</ele>
        <time>2025-03-30T02:15:55.000Z</time>
        <extensions>
          <ns3:TrackPointExtension>
            <ns3:atemp>26.0</ns3:atemp>
            <ns3:hr>89</ns3:hr>
            <ns3:cad>53</ns3:cad>
          </ns3:TrackPointExtension>
        </extensions>
      </trkpt>
      <trkpt lat="20.03501261584460735321044921875" lon="110.42412268929183483123779296875">
        <ele>2.599999904632568359375</ele>
        <time>2025-03-30T02:15:56.000Z</time>
        <extensions>
          <ns3:TrackPointExtension>
            <ns3:atemp>26.0</ns3:atemp>
            <ns3:hr>89</ns3:hr>
            <ns3:cad>52</ns3:cad>
          </ns3:TrackPointExtension>
        </extensions>
      </trkpt>
      <trkpt lat="20.03500901162624359130859375" lon="110.42411212809383869171142578125">
        <ele>2.599999904632568359375</ele>
        <time>2025-03-30T02:15:57.000Z</time>
        <extensions>
          <ns3:TrackPointExtension>
            <ns3:atemp>26.0</ns3:atemp>
            <ns3:hr>88</ns3:hr>
            <ns3:cad>51</ns3:cad>
          </ns3:TrackPointExtension>
        </extensions>
      </trkpt>
      <trkpt lat="20.035006664693355560302734375" lon="110.42410223744809627532958984375">
        <ele>2.400000095367431640625</ele>
        <time>2025-03-30T02:15:58.000Z</time>
        <extensions>
          <ns3:TrackPointExtension>
            <ns3:atemp>26.0</ns3:atemp>
            <ns3:hr>88</ns3:hr>
            <ns3:cad>51</ns3:cad>
          </ns3:TrackPointExtension>
        </extensions>
      </trkpt>
      <trkpt lat="20.03500364720821380615234375" lon="110.4240920953452587127685546875">
        <ele>2.400000095367431640625</ele>
        <time>2025-03-30T02:15:59.000Z</time>
        <extensions>
          <ns3:TrackPointExtension>
            <ns3:atemp>26.0</ns3:atemp>
            <ns3:hr>88</ns3:hr>
            <ns3:cad>52</ns3:cad>
          </ns3:TrackPointExtension>
        </extensions>
      </trkpt>
      <trkpt lat="20.03500096499919891357421875" lon="110.4240800254046916961669921875">
        <ele>2.400000095367431640625</ele>
        <time>2025-03-30T02:16:00.000Z</time>
        <extensions>
          <ns3:TrackPointExtension>
            <ns3:atemp>26.0</ns3:atemp>
            <ns3:hr>88</ns3:hr>
            <ns3:cad>53</ns3:cad>
          </ns3:TrackPointExtension>
        </extensions>
      </trkpt>
      <trkpt lat="20.034998618066310882568359375" lon="110.42406753636896610260009765625">
        <ele>2.400000095367431640625</ele>
        <time>2025-03-30T02:16:01.000Z</time>
        <extensions>
          <ns3:TrackPointExtension>
            <ns3:atemp>26.0</ns3:atemp>
            <ns3:hr>88</ns3:hr>
            <ns3:cad>53</ns3:cad>
          </ns3:TrackPointExtension>
        </extensions>
      </trkpt>
      <trkpt lat="20.03499669022858142852783203125" lon="110.42405563406646251678466796875">
        <ele>2.400000095367431640625</ele>
        <time>2025-03-30T02:16:02.000Z</time>
        <extensions>
          <ns3:TrackPointExtension>
            <ns3:atemp>26.0</ns3:atemp>
            <ns3:hr>88</ns3:hr>
            <ns3:cad>53</ns3:cad>
          </ns3:TrackPointExtension>
        </extensions>
      </trkpt>
      <trkpt lat="20.0349937565624713897705078125" lon="110.42404389940202236175537109375">
        <ele>2.599999904632568359375</ele>
        <time>2025-03-30T02:16:03.000Z</time>
        <extensions>
          <ns3:TrackPointExtension>
            <ns3:atemp>26.0</ns3:atemp>
            <ns3:hr>88</ns3:hr>
            <ns3:cad>53</ns3:cad>
          </ns3:TrackPointExtension>
        </extensions>
      </trkpt>
      <trkpt lat="20.0349907390773296356201171875" lon="110.424035601317882537841796875">
        <ele>2.599999904632568359375</ele>
        <time>2025-03-30T02:16:04.000Z</time>
        <extensions>
          <ns3:TrackPointExtension>
            <ns3:atemp>26.0</ns3:atemp>
            <ns3:hr>87</ns3:hr>
            <ns3:cad>53</ns3:cad>
          </ns3:TrackPointExtension>
        </extensions>
      </trkpt>
      <trkpt lat="20.0349907390773296356201171875" lon="110.424035601317882537841796875">
        <ele>2.599999904632568359375</ele>
        <time>2025-03-30T02:16:05.000Z</time>
        <extensions>
          <ns3:TrackPointExtension>
            <ns3:atemp>26.0</ns3:atemp>
            <ns3:hr>87</ns3:hr>
            <ns3:cad>53</ns3:cad>
          </ns3:TrackPointExtension>
        </extensions>
      </trkpt>
      <trkpt lat="20.0349907390773296356201171875" lon="110.424035601317882537841796875">
        <ele>2.599999904632568359375</ele>
        <time>2025-03-30T02:16:06.000Z</time>
        <extensions>
          <ns3:TrackPointExtension>
            <ns3:atemp>26.0</ns3:atemp>
            <ns3:hr>87</ns3:hr>
            <ns3:cad>53</ns3:cad>
          </ns3:TrackPointExtension>
        </extensions>
      </trkpt>
      <trkpt lat="20.03497456200420856475830078125" lon="110.42401892133057117462158203125">
        <ele>2.400000095367431640625</ele>
        <time>2025-03-30T02:16:07.000Z</time>
        <extensions>
          <ns3:TrackPointExtension>
            <ns3:atemp>26.0</ns3:atemp>
            <ns3:hr>87</ns3:hr>
            <ns3:cad>53</ns3:cad>
          </ns3:TrackPointExtension>
        </extensions>
      </trkpt>
      <trkpt lat="20.034970454871654510498046875" lon="110.424009449779987335205078125">
        <ele>2.400000095367431640625</ele>
        <time>2025-03-30T02:16:08.000Z</time>
        <extensions>
          <ns3:TrackPointExtension>
            <ns3:atemp>26.0</ns3:atemp>
            <ns3:hr>87</ns3:hr>
            <ns3:cad>53</ns3:cad>
          </ns3:TrackPointExtension>
        </extensions>
      </trkpt>
      <trkpt lat="20.034970454871654510498046875" lon="110.424009449779987335205078125">
        <ele>2.2000000476837158203125</ele>
        <time>2025-03-30T02:16:09.000Z</time>
        <extensions>
          <ns3:TrackPointExtension>
            <ns3:atemp>26.0</ns3:atemp>
            <ns3:hr>87</ns3:hr>
            <ns3:cad>54</ns3:cad>
          </ns3:TrackPointExtension>
        </extensions>
      </trkpt>
      <trkpt lat="20.03496768884360790252685546875" lon="110.423985309898853302001953125">
        <ele>2.2000000476837158203125</ele>
        <time>2025-03-30T02:16:10.000Z</time>
        <extensions>
          <ns3:TrackPointExtension>
            <ns3:atemp>26.0</ns3:atemp>
            <ns3:hr>87</ns3:hr>
            <ns3:cad>55</ns3:cad>
          </ns3:TrackPointExtension>
        </extensions>
      </trkpt>
      <trkpt lat="20.0349679403007030487060546875" lon="110.423974581062793731689453125">
        <ele>2.2000000476837158203125</ele>
        <time>2025-03-30T02:16:11.000Z</time>
        <extensions>
          <ns3:TrackPointExtension>
            <ns3:atemp>26.0</ns3:atemp>
            <ns3:hr>88</ns3:hr>
            <ns3:cad>55</ns3:cad>
          </ns3:TrackPointExtension>
        </extensions>
      </trkpt>
      <trkpt lat="20.0349679403007030487060546875" lon="110.423974581062793731689453125">
        <ele>2.2000000476837158203125</ele>
        <time>2025-03-30T02:16:12.000Z</time>
        <extensions>
          <ns3:TrackPointExtension>
            <ns3:atemp>26.0</ns3:atemp>
            <ns3:hr>87</ns3:hr>
            <ns3:cad>55</ns3:cad>
          </ns3:TrackPointExtension>
        </extensions>
      </trkpt>
      <trkpt lat="20.0349649228155612945556640625" lon="110.4239529557526111602783203125">
        <ele>2.400000095367431640625</ele>
        <time>2025-03-30T02:16:13.000Z</time>
        <extensions>
          <ns3:TrackPointExtension>
            <ns3:atemp>26.0</ns3:atemp>
            <ns3:hr>87</ns3:hr>
            <ns3:cad>55</ns3:cad>
          </ns3:TrackPointExtension>
        </extensions>
      </trkpt>
      <trkpt lat="20.03496265970170497894287109375" lon="110.4239425621926784515380859375">
        <ele>2.599999904632568359375</ele>
        <time>2025-03-30T02:16:14.000Z</time>
        <extensions>
          <ns3:TrackPointExtension>
            <ns3:atemp>26.0</ns3:atemp>
            <ns3:hr>86</ns3:hr>
            <ns3:cad>55</ns3:cad>
          </ns3:TrackPointExtension>
        </extensions>
      </trkpt>
      <trkpt lat="20.03496265970170497894287109375" lon="110.4239425621926784515380859375">
        <ele>2.599999904632568359375</ele>
        <time>2025-03-30T02:16:15.000Z</time>
        <extensions>
          <ns3:TrackPointExtension>
            <ns3:atemp>26.0</ns3:atemp>
            <ns3:hr>85</ns3:hr>
            <ns3:cad>55</ns3:cad>
          </ns3:TrackPointExtension>
        </extensions>
      </trkpt>
      <trkpt lat="20.03496265970170497894287109375" lon="110.4239425621926784515380859375">
        <ele>2.599999904632568359375</ele>
        <time>2025-03-30T02:16:16.000Z</time>
        <extensions>
          <ns3:TrackPointExtension>
            <ns3:atemp>26.0</ns3:atemp>
            <ns3:hr>85</ns3:hr>
            <ns3:cad>0</ns3:cad>
          </ns3:TrackPointExtension>
        </extensions>
      </trkpt>
      <trkpt lat="20.03496265970170497894287109375" lon="110.4239425621926784515380859375">
        <ele>2.599999904632568359375</ele>
        <time>2025-03-30T02:16:17.000Z</time>
        <extensions>
          <ns3:TrackPointExtension>
            <ns3:atemp>26.0</ns3:atemp>
            <ns3:hr>85</ns3:hr>
            <ns3:cad>0</ns3:cad>
          </ns3:TrackPointExtension>
        </extensions>
      </trkpt>
      <trkpt lat="20.03496265970170497894287109375" lon="110.4239425621926784515380859375">
        <ele>2.599999904632568359375</ele>
        <time>2025-03-30T02:16:18.000Z</time>
        <extensions>
          <ns3:TrackPointExtension>
            <ns3:atemp>26.0</ns3:atemp>
            <ns3:hr>85</ns3:hr>
            <ns3:cad>0</ns3:cad>
          </ns3:TrackPointExtension>
        </extensions>
      </trkpt>
    </trkseg>
  </trk>
</gpx>
