<gpx xmlns:ns3="http://www.garmin.com/xmlschemas/TrackPointExtension/v1" xmlns="http://www.topografix.com/GPX/1/1" xmlns:xsi="http://www.w3.org/2001/XMLSchema-instance" xmlns:ns2="http://www.garmin.com/xmlschemas/GpxExtensions/v3" creator="Garmin Connect" version="1.1" xsi:schemaLocation="http://www.topografix.com/GPX/1/1 http://www.topografix.com/GPX/11.xsd">
  <extensions>
<distance>1210.36</distance>
<average_hr>128.0</average_hr>
<average_speed>5.061999797821045</average_speed>
<start_time>2026-03-17T03:34:05+00:00</start_time>
<end_time>2026-03-17T03:38:04.087000+00:00</end_time>
<moving_time>233.0</moving_time>
<elapsed_time>399.232</elapsed_time>
</extensions>
<metadata>
    <link href="connect.garmin.com">
      <text>Garmin Connect</text>
    </link>
    <time>2026-03-17T03:34:05.000Z</time>
  </metadata>
  <trk>
    <name>深圳市 骑行</name>
    <type>cycling</type>
    <trkseg>
      <trkpt lat="22.5878210552036762237548828125" lon="114.27334274165332317352294921875">
        <ele>128.1999969482421875</ele>
        <time>2026-03-17T03:34:05.000Z</time>
        <extensions>
          <ns3:TrackPointExtension>
            <ns3:atemp>32.0</ns3:atemp>
            <ns3:hr>106</ns3:hr>
          </ns3:TrackPointExtension>
        </extensions>
      </trkpt>
      <trkpt lat="22.587819881737232208251953125" lon="114.27333821542561054229736328125">
        <ele>128.1999969482421875</ele>
        <time>2026-03-17T03:34:06.000Z</time>
        <extensions>
          <ns3:TrackPointExtension>
            <ns3:atemp>32.0</ns3:atemp>
            <ns3:hr>105</ns3:hr>
          </ns3:TrackPointExtension>
        </extensions>
      </trkpt>
      <trkpt lat="22.587699182331562042236328125" lon="114.27330887876451015472412109375">
        <ele>125.59999847412109375</ele>
        <time>2026-03-17T03:34:10.000Z</time>
        <extensions>
          <ns3:TrackPointExtension>
            <ns3:atemp>32.0</ns3:atemp>
            <ns3:hr>104</ns3:hr>
          </ns3:TrackPointExtension>
        </extensions>
      </trkpt>
      <trkpt lat="22.58766221813857555389404296875" lon="114.2732789553701877593994140625">
        <ele>125.40000152587890625</ele>
        <time>2026-03-17T03:34:11.000Z</time>
        <extensions>
          <ns3:TrackPointExtension>
            <ns3:atemp>32.0</ns3:atemp>
            <ns3:hr>104</ns3:hr>
          </ns3:TrackPointExtension>
        </extensions>
      </trkpt>
      <trkpt lat="22.58763204328715801239013671875" lon="114.27324886433780193328857421875">
        <ele>125.40000152587890625</ele>
        <time>2026-03-17T03:34:12.000Z</time>
        <extensions>
          <ns3:TrackPointExtension>
            <ns3:atemp>32.0</ns3:atemp>
            <ns3:hr>103</ns3:hr>
          </ns3:TrackPointExtension>
        </extensions>
      </trkpt>
      <trkpt lat="22.587597928941249847412109375" lon="114.27322422154247760772705078125">
        <ele>125.1999969482421875</ele>
        <time>2026-03-17T03:34:13.000Z</time>
        <extensions>
          <ns3:TrackPointExtension>
            <ns3:atemp>32.0</ns3:atemp>
            <ns3:hr>105</ns3:hr>
          </ns3:TrackPointExtension>
        </extensions>
      </trkpt>
      <trkpt lat="22.5875561870634555816650390625" lon="114.27318499423563480377197265625">
        <ele>125.1999969482421875</ele>
        <time>2026-03-17T03:34:14.000Z</time>
        <extensions>
          <ns3:TrackPointExtension>
            <ns3:atemp>32.0</ns3:atemp>
            <ns3:hr>106</ns3:hr>
          </ns3:TrackPointExtension>
        </extensions>
      </trkpt>
      <trkpt lat="22.58751587010920047760009765625" lon="114.273154735565185546875">
        <ele>125.40000152587890625</ele>
        <time>2026-03-17T03:34:15.000Z</time>
        <extensions>
          <ns3:TrackPointExtension>
            <ns3:atemp>32.0</ns3:atemp>
            <ns3:hr>107</ns3:hr>
          </ns3:TrackPointExtension>
        </extensions>
      </trkpt>
      <trkpt lat="22.5874733738601207733154296875" lon="114.27311542443931102752685546875">
        <ele>125.59999847412109375</ele>
        <time>2026-03-17T03:34:16.000Z</time>
        <extensions>
          <ns3:TrackPointExtension>
            <ns3:atemp>32.0</ns3:atemp>
            <ns3:hr>108</ns3:hr>
          </ns3:TrackPointExtension>
        </extensions>
      </trkpt>
      <trkpt lat="22.587428949773311614990234375" lon="114.2730741016566753387451171875">
        <ele>125.8000030517578125</ele>
        <time>2026-03-17T03:34:17.000Z</time>
        <extensions>
          <ns3:TrackPointExtension>
            <ns3:atemp>32.0</ns3:atemp>
            <ns3:hr>109</ns3:hr>
          </ns3:TrackPointExtension>
        </extensions>
      </trkpt>
      <trkpt lat="22.58738745935261249542236328125" lon="114.27304518409073352813720703125">
        <ele>126</ele>
        <time>2026-03-17T03:34:18.000Z</time>
        <extensions>
          <ns3:TrackPointExtension>
            <ns3:atemp>32.0</ns3:atemp>
            <ns3:hr>109</ns3:hr>
          </ns3:TrackPointExtension>
        </extensions>
      </trkpt>
      <trkpt lat="22.5873434543609619140625" lon="114.27301752381026744842529296875">
        <ele>126.1999969482421875</ele>
        <time>2026-03-17T03:34:19.000Z</time>
        <extensions>
          <ns3:TrackPointExtension>
            <ns3:atemp>32.0</ns3:atemp>
            <ns3:hr>109</ns3:hr>
          </ns3:TrackPointExtension>
        </extensions>
      </trkpt>
      <trkpt lat="22.5873030535876750946044921875" lon="114.27298533730208873748779296875">
        <ele>126.1999969482421875</ele>
        <time>2026-03-17T03:34:20.000Z</time>
        <extensions>
          <ns3:TrackPointExtension>
            <ns3:atemp>32.0</ns3:atemp>
            <ns3:hr>108</ns3:hr>
          </ns3:TrackPointExtension>
        </extensions>
      </trkpt>
      <trkpt lat="22.58725821040570735931396484375" lon="114.2729564197361469268798828125">
        <ele>126.1999969482421875</ele>
        <time>2026-03-17T03:34:21.000Z</time>
        <extensions>
          <ns3:TrackPointExtension>
            <ns3:atemp>32.0</ns3:atemp>
            <ns3:hr>107</ns3:hr>
          </ns3:TrackPointExtension>
        </extensions>
      </trkpt>
      <trkpt lat="22.58721479214727878570556640625" lon="114.2729329504072666168212890625">
        <ele>126.40000152587890625</ele>
        <time>2026-03-17T03:34:22.000Z</time>
        <extensions>
          <ns3:TrackPointExtension>
            <ns3:atemp>32.0</ns3:atemp>
            <ns3:hr>104</ns3:hr>
          </ns3:TrackPointExtension>
        </extensions>
      </trkpt>
      <trkpt lat="22.58717246353626251220703125" lon="114.272908978164196014404296875">
        <ele>126.59999847412109375</ele>
        <time>2026-03-17T03:34:23.000Z</time>
        <extensions>
          <ns3:TrackPointExtension>
            <ns3:atemp>32.0</ns3:atemp>
            <ns3:hr>102</ns3:hr>
          </ns3:TrackPointExtension>
        </extensions>
      </trkpt>
      <trkpt lat="22.58713625371456146240234375" lon="114.27288408391177654266357421875">
        <ele>126.8000030517578125</ele>
        <time>2026-03-17T03:34:24.000Z</time>
        <extensions>
          <ns3:TrackPointExtension>
            <ns3:atemp>32.0</ns3:atemp>
            <ns3:hr>101</ns3:hr>
          </ns3:TrackPointExtension>
        </extensions>
      </trkpt>
      <trkpt lat="22.58709660731256008148193359375" lon="114.27285541780292987823486328125">
        <ele>126.8000030517578125</ele>
        <time>2026-03-17T03:34:25.000Z</time>
        <extensions>
          <ns3:TrackPointExtension>
            <ns3:atemp>32.0</ns3:atemp>
            <ns3:hr>99</ns3:hr>
          </ns3:TrackPointExtension>
        </extensions>
      </trkpt>
      <trkpt lat="22.5870576314628124237060546875" lon="114.27282390184700489044189453125">
        <ele>127</ele>
        <time>2026-03-17T03:34:26.000Z</time>
        <extensions>
          <ns3:TrackPointExtension>
            <ns3:atemp>32.0</ns3:atemp>
            <ns3:hr>98</ns3:hr>
          </ns3:TrackPointExtension>
        </extensions>
      </trkpt>
      <trkpt lat="22.5870175659656524658203125" lon="114.27279624156653881072998046875">
        <ele>127.1999969482421875</ele>
        <time>2026-03-17T03:34:27.000Z</time>
        <extensions>
          <ns3:TrackPointExtension>
            <ns3:atemp>32.0</ns3:atemp>
            <ns3:hr>97</ns3:hr>
          </ns3:TrackPointExtension>
        </extensions>
      </trkpt>
      <trkpt lat="22.5869785062968730926513671875" lon="114.2727633006870746612548828125">
        <ele>127.40000152587890625</ele>
        <time>2026-03-17T03:34:28.000Z</time>
        <extensions>
          <ns3:TrackPointExtension>
            <ns3:atemp>32.0</ns3:atemp>
            <ns3:hr>97</ns3:hr>
          </ns3:TrackPointExtension>
        </extensions>
      </trkpt>
      <trkpt lat="22.586938776075839996337890625" lon="114.27273094654083251953125">
        <ele>127.59999847412109375</ele>
        <time>2026-03-17T03:34:29.000Z</time>
        <extensions>
          <ns3:TrackPointExtension>
            <ns3:atemp>32.0</ns3:atemp>
            <ns3:hr>96</ns3:hr>
          </ns3:TrackPointExtension>
        </extensions>
      </trkpt>
      <trkpt lat="22.5869023986160755157470703125" lon="114.27269448526203632354736328125">
        <ele>127.8000030517578125</ele>
        <time>2026-03-17T03:34:30.000Z</time>
        <extensions>
          <ns3:TrackPointExtension>
            <ns3:atemp>32.0</ns3:atemp>
            <ns3:hr>96</ns3:hr>
          </ns3:TrackPointExtension>
        </extensions>
      </trkpt>
      <trkpt lat="22.58686476387083530426025390625" lon="114.2726509831845760345458984375">
        <ele>128.1999969482421875</ele>
        <time>2026-03-17T03:34:31.000Z</time>
        <extensions>
          <ns3:TrackPointExtension>
            <ns3:atemp>32.0</ns3:atemp>
            <ns3:hr>96</ns3:hr>
          </ns3:TrackPointExtension>
        </extensions>
      </trkpt>
      <trkpt lat="22.58682520128786563873291015625" lon="114.27260949276387691497802734375">
        <ele>128.399993896484375</ele>
        <time>2026-03-17T03:34:32.000Z</time>
        <extensions>
          <ns3:TrackPointExtension>
            <ns3:atemp>32.0</ns3:atemp>
            <ns3:hr>97</ns3:hr>
          </ns3:TrackPointExtension>
        </extensions>
      </trkpt>
      <trkpt lat="22.5867830403149127960205078125" lon="114.27256355993449687957763671875">
        <ele>128.600006103515625</ele>
        <time>2026-03-17T03:34:33.000Z</time>
        <extensions>
          <ns3:TrackPointExtension>
            <ns3:atemp>32.0</ns3:atemp>
            <ns3:hr>98</ns3:hr>
          </ns3:TrackPointExtension>
        </extensions>
      </trkpt>
      <trkpt lat="22.5867439806461334228515625" lon="114.2725262604653835296630859375">
        <ele>128.8000030517578125</ele>
        <time>2026-03-17T03:34:34.000Z</time>
        <extensions>
          <ns3:TrackPointExtension>
            <ns3:atemp>32.0</ns3:atemp>
            <ns3:hr>100</ns3:hr>
          </ns3:TrackPointExtension>
        </extensions>
      </trkpt>
      <trkpt lat="22.58671053685247898101806640625" lon="114.27249197848141193389892578125">
        <ele>129</ele>
        <time>2026-03-17T03:34:35.000Z</time>
        <extensions>
          <ns3:TrackPointExtension>
            <ns3:atemp>32.0</ns3:atemp>
            <ns3:hr>102</ns3:hr>
          </ns3:TrackPointExtension>
        </extensions>
      </trkpt>
      <trkpt lat="22.5866769254207611083984375" lon="114.2724514938890933990478515625">
        <ele>129.1999969482421875</ele>
        <time>2026-03-17T03:34:36.000Z</time>
        <extensions>
          <ns3:TrackPointExtension>
            <ns3:atemp>32.0</ns3:atemp>
            <ns3:hr>103</ns3:hr>
          </ns3:TrackPointExtension>
        </extensions>
      </trkpt>
      <trkpt lat="22.58664448745548725128173828125" lon="114.27241385914385318756103515625">
        <ele>129.399993896484375</ele>
        <time>2026-03-17T03:34:37.000Z</time>
        <extensions>
          <ns3:TrackPointExtension>
            <ns3:atemp>32.0</ns3:atemp>
            <ns3:hr>104</ns3:hr>
          </ns3:TrackPointExtension>
        </extensions>
      </trkpt>
      <trkpt lat="22.586613558232784271240234375" lon="114.27237513475120067596435546875">
        <ele>129.399993896484375</ele>
        <time>2026-03-17T03:34:38.000Z</time>
        <extensions>
          <ns3:TrackPointExtension>
            <ns3:atemp>32.0</ns3:atemp>
            <ns3:hr>104</ns3:hr>
          </ns3:TrackPointExtension>
        </extensions>
      </trkpt>
      <trkpt lat="22.58657307364046573638916015625" lon="114.272332973778247833251953125">
        <ele>129.399993896484375</ele>
        <time>2026-03-17T03:34:39.000Z</time>
        <extensions>
          <ns3:TrackPointExtension>
            <ns3:atemp>32.0</ns3:atemp>
            <ns3:hr>105</ns3:hr>
          </ns3:TrackPointExtension>
        </extensions>
      </trkpt>
      <trkpt lat="22.5865312479436397552490234375" lon="114.27229098044335842132568359375">
        <ele>129.399993896484375</ele>
        <time>2026-03-17T03:34:40.000Z</time>
        <extensions>
          <ns3:TrackPointExtension>
            <ns3:atemp>32.0</ns3:atemp>
            <ns3:hr>105</ns3:hr>
          </ns3:TrackPointExtension>
        </extensions>
      </trkpt>
      <trkpt lat="22.586488835513591766357421875" lon="114.27225611172616481781005859375">
        <ele>129.399993896484375</ele>
        <time>2026-03-17T03:34:41.000Z</time>
        <extensions>
          <ns3:TrackPointExtension>
            <ns3:atemp>32.0</ns3:atemp>
            <ns3:hr>105</ns3:hr>
          </ns3:TrackPointExtension>
        </extensions>
      </trkpt>
      <trkpt lat="22.5864464230835437774658203125" lon="114.2722194828093051910400390625">
        <ele>129.399993896484375</ele>
        <time>2026-03-17T03:34:42.000Z</time>
        <extensions>
          <ns3:TrackPointExtension>
            <ns3:atemp>32.0</ns3:atemp>
            <ns3:hr>105</ns3:hr>
          </ns3:TrackPointExtension>
        </extensions>
      </trkpt>
      <trkpt lat="22.5864108838140964508056640625" lon="114.27218134514987468719482421875">
        <ele>129.399993896484375</ele>
        <time>2026-03-17T03:34:43.000Z</time>
        <extensions>
          <ns3:TrackPointExtension>
            <ns3:atemp>32.0</ns3:atemp>
            <ns3:hr>106</ns3:hr>
          </ns3:TrackPointExtension>
        </extensions>
      </trkpt>
      <trkpt lat="22.58636939339339733123779296875" lon="114.27214463241398334503173828125">
        <ele>129.600006103515625</ele>
        <time>2026-03-17T03:34:44.000Z</time>
        <extensions>
          <ns3:TrackPointExtension>
            <ns3:atemp>31.0</ns3:atemp>
            <ns3:hr>107</ns3:hr>
          </ns3:TrackPointExtension>
        </extensions>
      </trkpt>
      <trkpt lat="22.5863257236778736114501953125" lon="114.27210540510714054107666015625">
        <ele>129.600006103515625</ele>
        <time>2026-03-17T03:34:45.000Z</time>
        <extensions>
          <ns3:TrackPointExtension>
            <ns3:atemp>31.0</ns3:atemp>
            <ns3:hr>108</ns3:hr>
          </ns3:TrackPointExtension>
        </extensions>
      </trkpt>
      <trkpt lat="22.58627719245851039886474609375" lon="114.2720662616193294525146484375">
        <ele>129.8000030517578125</ele>
        <time>2026-03-17T03:34:46.000Z</time>
        <extensions>
          <ns3:TrackPointExtension>
            <ns3:atemp>32.0</ns3:atemp>
            <ns3:hr>110</ns3:hr>
          </ns3:TrackPointExtension>
        </extensions>
      </trkpt>
      <trkpt lat="22.58623075671494007110595703125" lon="114.27202376537024974822998046875">
        <ele>129.8000030517578125</ele>
        <time>2026-03-17T03:34:47.000Z</time>
        <extensions>
          <ns3:TrackPointExtension>
            <ns3:atemp>32.0</ns3:atemp>
            <ns3:hr>113</ns3:hr>
          </ns3:TrackPointExtension>
        </extensions>
      </trkpt>
      <trkpt lat="22.58618717081844806671142578125" lon="114.2719785869121551513671875">
        <ele>129.8000030517578125</ele>
        <time>2026-03-17T03:34:48.000Z</time>
        <extensions>
          <ns3:TrackPointExtension>
            <ns3:atemp>32.0</ns3:atemp>
            <ns3:hr>114</ns3:hr>
          </ns3:TrackPointExtension>
        </extensions>
      </trkpt>
      <trkpt lat="22.5861406512558460235595703125" lon="114.27193592302501201629638671875">
        <ele>130</ele>
        <time>2026-03-17T03:34:49.000Z</time>
        <extensions>
          <ns3:TrackPointExtension>
            <ns3:atemp>32.0</ns3:atemp>
            <ns3:hr>116</ns3:hr>
          </ns3:TrackPointExtension>
        </extensions>
      </trkpt>
      <trkpt lat="22.58609865792095661163330078125" lon="114.27189351059496402740478515625">
        <ele>130</ele>
        <time>2026-03-17T03:34:50.000Z</time>
        <extensions>
          <ns3:TrackPointExtension>
            <ns3:atemp>31.0</ns3:atemp>
            <ns3:hr>117</ns3:hr>
          </ns3:TrackPointExtension>
        </extensions>
      </trkpt>
      <trkpt lat="22.58605909533798694610595703125" lon="114.27185193635523319244384765625">
        <ele>130.1999969482421875</ele>
        <time>2026-03-17T03:34:51.000Z</time>
        <extensions>
          <ns3:TrackPointExtension>
            <ns3:atemp>31.0</ns3:atemp>
            <ns3:hr>117</ns3:hr>
          </ns3:TrackPointExtension>
        </extensions>
      </trkpt>
      <trkpt lat="22.58601685054600238800048828125" lon="114.2718122899532318115234375">
        <ele>130.399993896484375</ele>
        <time>2026-03-17T03:34:52.000Z</time>
        <extensions>
          <ns3:TrackPointExtension>
            <ns3:atemp>31.0</ns3:atemp>
            <ns3:hr>117</ns3:hr>
          </ns3:TrackPointExtension>
        </extensions>
      </trkpt>
      <trkpt lat="22.58597577922046184539794921875" lon="114.271770380437374114990234375">
        <ele>130.399993896484375</ele>
        <time>2026-03-17T03:34:53.000Z</time>
        <extensions>
          <ns3:TrackPointExtension>
            <ns3:atemp>31.0</ns3:atemp>
            <ns3:hr>118</ns3:hr>
          </ns3:TrackPointExtension>
        </extensions>
      </trkpt>
      <trkpt lat="22.58593437261879444122314453125" lon="114.27172855474054813385009765625">
        <ele>130.600006103515625</ele>
        <time>2026-03-17T03:34:54.000Z</time>
        <extensions>
          <ns3:TrackPointExtension>
            <ns3:atemp>31.0</ns3:atemp>
            <ns3:hr>119</ns3:hr>
          </ns3:TrackPointExtension>
        </extensions>
      </trkpt>
      <trkpt lat="22.585893385112285614013671875" lon="114.271687902510166168212890625">
        <ele>130.600006103515625</ele>
        <time>2026-03-17T03:34:55.000Z</time>
        <extensions>
          <ns3:TrackPointExtension>
            <ns3:atemp>31.0</ns3:atemp>
            <ns3:hr>121</ns3:hr>
          </ns3:TrackPointExtension>
        </extensions>
      </trkpt>
      <trkpt lat="22.5858561694622039794921875" lon="114.2716511897742748260498046875">
        <ele>130.8000030517578125</ele>
        <time>2026-03-17T03:34:56.000Z</time>
        <extensions>
          <ns3:TrackPointExtension>
            <ns3:atemp>31.0</ns3:atemp>
            <ns3:hr>122</ns3:hr>
          </ns3:TrackPointExtension>
        </extensions>
      </trkpt>
      <trkpt lat="22.58581702597439289093017578125" lon="114.2716156505048274993896484375">
        <ele>130.8000030517578125</ele>
        <time>2026-03-17T03:34:57.000Z</time>
        <extensions>
          <ns3:TrackPointExtension>
            <ns3:atemp>31.0</ns3:atemp>
            <ns3:hr>123</ns3:hr>
          </ns3:TrackPointExtension>
        </extensions>
      </trkpt>
      <trkpt lat="22.58577796630561351776123046875" lon="114.27157583646476268768310546875">
        <ele>130.600006103515625</ele>
        <time>2026-03-17T03:34:58.000Z</time>
        <extensions>
          <ns3:TrackPointExtension>
            <ns3:atemp>32.0</ns3:atemp>
            <ns3:hr>124</ns3:hr>
          </ns3:TrackPointExtension>
        </extensions>
      </trkpt>
      <trkpt lat="22.585741169750690460205078125" lon="114.27153610624372959136962890625">
        <ele>130.600006103515625</ele>
        <time>2026-03-17T03:34:59.000Z</time>
        <extensions>
          <ns3:TrackPointExtension>
            <ns3:atemp>31.0</ns3:atemp>
            <ns3:hr>125</ns3:hr>
          </ns3:TrackPointExtension>
        </extensions>
      </trkpt>
      <trkpt lat="22.5857078097760677337646484375" lon="114.2714877426624298095703125">
        <ele>130.600006103515625</ele>
        <time>2026-03-17T03:35:00.000Z</time>
        <extensions>
          <ns3:TrackPointExtension>
            <ns3:atemp>31.0</ns3:atemp>
            <ns3:hr>125</ns3:hr>
          </ns3:TrackPointExtension>
        </extensions>
      </trkpt>
      <trkpt lat="22.58569448255002498626708984375" lon="114.2714299075305461883544921875">
        <ele>130.8000030517578125</ele>
        <time>2026-03-17T03:35:01.000Z</time>
        <extensions>
          <ns3:TrackPointExtension>
            <ns3:atemp>31.0</ns3:atemp>
            <ns3:hr>125</ns3:hr>
          </ns3:TrackPointExtension>
        </extensions>
      </trkpt>
      <trkpt lat="22.58570537902414798736572265625" lon="114.27137500606477260589599609375">
        <ele>131</ele>
        <time>2026-03-17T03:35:02.000Z</time>
        <extensions>
          <ns3:TrackPointExtension>
            <ns3:atemp>31.0</ns3:atemp>
            <ns3:hr>125</ns3:hr>
          </ns3:TrackPointExtension>
        </extensions>
      </trkpt>
      <trkpt lat="22.58573287166655063629150390625" lon="114.27132840268313884735107421875">
        <ele>131</ele>
        <time>2026-03-17T03:35:03.000Z</time>
        <extensions>
          <ns3:TrackPointExtension>
            <ns3:atemp>31.0</ns3:atemp>
            <ns3:hr>125</ns3:hr>
          </ns3:TrackPointExtension>
        </extensions>
      </trkpt>
      <trkpt lat="22.58577159605920314788818359375" lon="114.27128364332020282745361328125">
        <ele>131.1999969482421875</ele>
        <time>2026-03-17T03:35:04.000Z</time>
        <extensions>
          <ns3:TrackPointExtension>
            <ns3:atemp>31.0</ns3:atemp>
            <ns3:hr>125</ns3:hr>
          </ns3:TrackPointExtension>
        </extensions>
      </trkpt>
      <trkpt lat="22.58580361492931842803955078125" lon="114.2712428234517574310302734375">
        <ele>131.399993896484375</ele>
        <time>2026-03-17T03:35:05.000Z</time>
        <extensions>
          <ns3:TrackPointExtension>
            <ns3:atemp>31.0</ns3:atemp>
            <ns3:hr>126</ns3:hr>
          </ns3:TrackPointExtension>
        </extensions>
      </trkpt>
      <trkpt lat="22.58583848364651203155517578125" lon="114.2712059430778026580810546875">
        <ele>131.600006103515625</ele>
        <time>2026-03-17T03:35:06.000Z</time>
        <extensions>
          <ns3:TrackPointExtension>
            <ns3:atemp>31.0</ns3:atemp>
            <ns3:hr>126</ns3:hr>
          </ns3:TrackPointExtension>
        </extensions>
      </trkpt>
      <trkpt lat="22.58587720803916454315185546875" lon="114.27117099054157733917236328125">
        <ele>131.600006103515625</ele>
        <time>2026-03-17T03:35:07.000Z</time>
        <extensions>
          <ns3:TrackPointExtension>
            <ns3:atemp>31.0</ns3:atemp>
            <ns3:hr>126</ns3:hr>
          </ns3:TrackPointExtension>
        </extensions>
      </trkpt>
      <trkpt lat="22.585924565792083740234375" lon="114.27113830111920833587646484375">
        <ele>131.8000030517578125</ele>
        <time>2026-03-17T03:35:08.000Z</time>
        <extensions>
          <ns3:TrackPointExtension>
            <ns3:atemp>31.0</ns3:atemp>
            <ns3:hr>127</ns3:hr>
          </ns3:TrackPointExtension>
        </extensions>
      </trkpt>
      <trkpt lat="22.58596538566052913665771484375" lon="114.2711056955158710479736328125">
        <ele>131.600006103515625</ele>
        <time>2026-03-17T03:35:09.000Z</time>
        <extensions>
          <ns3:TrackPointExtension>
            <ns3:atemp>31.0</ns3:atemp>
            <ns3:hr>128</ns3:hr>
          </ns3:TrackPointExtension>
        </extensions>
      </trkpt>
      <trkpt lat="22.58600830100476741790771484375" lon="114.27108029834926128387451171875">
        <ele>131.600006103515625</ele>
        <time>2026-03-17T03:35:10.000Z</time>
        <extensions>
          <ns3:TrackPointExtension>
            <ns3:atemp>31.0</ns3:atemp>
            <ns3:hr>128</ns3:hr>
          </ns3:TrackPointExtension>
        </extensions>
      </trkpt>
      <trkpt lat="22.58604518137872219085693359375" lon="114.27104559727013111114501953125">
        <ele>131.600006103515625</ele>
        <time>2026-03-17T03:35:11.000Z</time>
        <extensions>
          <ns3:TrackPointExtension>
            <ns3:atemp>31.0</ns3:atemp>
            <ns3:hr>128</ns3:hr>
          </ns3:TrackPointExtension>
        </extensions>
      </trkpt>
      <trkpt lat="22.5860813073813915252685546875" lon="114.27100804634392261505126953125">
        <ele>131.600006103515625</ele>
        <time>2026-03-17T03:35:12.000Z</time>
        <extensions>
          <ns3:TrackPointExtension>
            <ns3:atemp>31.0</ns3:atemp>
            <ns3:hr>128</ns3:hr>
          </ns3:TrackPointExtension>
        </extensions>
      </trkpt>
      <trkpt lat="22.58611659519374370574951171875" lon="114.270973093807697296142578125">
        <ele>131.600006103515625</ele>
        <time>2026-03-17T03:35:13.000Z</time>
        <extensions>
          <ns3:TrackPointExtension>
            <ns3:atemp>31.0</ns3:atemp>
            <ns3:hr>127</ns3:hr>
          </ns3:TrackPointExtension>
        </extensions>
      </trkpt>
      <trkpt lat="22.5861463509500026702880859375" lon="114.2709360457956790924072265625">
        <ele>131.600006103515625</ele>
        <time>2026-03-17T03:35:14.000Z</time>
        <extensions>
          <ns3:TrackPointExtension>
            <ns3:atemp>31.0</ns3:atemp>
            <ns3:hr>127</ns3:hr>
          </ns3:TrackPointExtension>
        </extensions>
      </trkpt>
      <trkpt lat="22.58617870509624481201171875" lon="114.2708988301455974578857421875">
        <ele>131.600006103515625</ele>
        <time>2026-03-17T03:35:15.000Z</time>
        <extensions>
          <ns3:TrackPointExtension>
            <ns3:atemp>31.0</ns3:atemp>
            <ns3:hr>127</ns3:hr>
          </ns3:TrackPointExtension>
        </extensions>
      </trkpt>
      <trkpt lat="22.5862117297947406768798828125" lon="114.2708616144955158233642578125">
        <ele>131.600006103515625</ele>
        <time>2026-03-17T03:35:16.000Z</time>
        <extensions>
          <ns3:TrackPointExtension>
            <ns3:atemp>31.0</ns3:atemp>
            <ns3:hr>127</ns3:hr>
          </ns3:TrackPointExtension>
        </extensions>
      </trkpt>
      <trkpt lat="22.5862452574074268341064453125" lon="114.27082632668316364288330078125">
        <ele>131.8000030517578125</ele>
        <time>2026-03-17T03:35:17.000Z</time>
        <extensions>
          <ns3:TrackPointExtension>
            <ns3:atemp>31.0</ns3:atemp>
            <ns3:hr>127</ns3:hr>
          </ns3:TrackPointExtension>
        </extensions>
      </trkpt>
      <trkpt lat="22.58628020994365215301513671875" lon="114.2707928828895092010498046875">
        <ele>131.8000030517578125</ele>
        <time>2026-03-17T03:35:18.000Z</time>
        <extensions>
          <ns3:TrackPointExtension>
            <ns3:atemp>31.0</ns3:atemp>
            <ns3:hr>126</ns3:hr>
          </ns3:TrackPointExtension>
        </extensions>
      </trkpt>
      <trkpt lat="22.5863133184611797332763671875" lon="114.27075642161071300506591796875">
        <ele>131.8000030517578125</ele>
        <time>2026-03-17T03:35:19.000Z</time>
        <extensions>
          <ns3:TrackPointExtension>
            <ns3:atemp>31.0</ns3:atemp>
            <ns3:hr>126</ns3:hr>
          </ns3:TrackPointExtension>
        </extensions>
      </trkpt>
      <trkpt lat="22.58634692989289760589599609375" lon="114.270717613399028778076171875">
        <ele>131.8000030517578125</ele>
        <time>2026-03-17T03:35:20.000Z</time>
        <extensions>
          <ns3:TrackPointExtension>
            <ns3:atemp>31.0</ns3:atemp>
            <ns3:hr>126</ns3:hr>
          </ns3:TrackPointExtension>
        </extensions>
      </trkpt>
      <trkpt lat="22.5863833911716938018798828125" lon="114.2706805653870105743408203125">
        <ele>132</ele>
        <time>2026-03-17T03:35:21.000Z</time>
        <extensions>
          <ns3:TrackPointExtension>
            <ns3:atemp>31.0</ns3:atemp>
            <ns3:hr>126</ns3:hr>
          </ns3:TrackPointExtension>
        </extensions>
      </trkpt>
      <trkpt lat="22.5864219479262828826904296875" lon="114.2706426791846752166748046875">
        <ele>132</ele>
        <time>2026-03-17T03:35:22.000Z</time>
        <extensions>
          <ns3:TrackPointExtension>
            <ns3:atemp>31.0</ns3:atemp>
            <ns3:hr>126</ns3:hr>
          </ns3:TrackPointExtension>
        </extensions>
      </trkpt>
      <trkpt lat="22.58645773865282535552978515625" lon="114.27060403861105442047119140625">
        <ele>132</ele>
        <time>2026-03-17T03:35:23.000Z</time>
        <extensions>
          <ns3:TrackPointExtension>
            <ns3:atemp>31.0</ns3:atemp>
            <ns3:hr>126</ns3:hr>
          </ns3:TrackPointExtension>
        </extensions>
      </trkpt>
      <trkpt lat="22.5864913500845432281494140625" lon="114.270568080246448516845703125">
        <ele>132</ele>
        <time>2026-03-17T03:35:24.000Z</time>
        <extensions>
          <ns3:TrackPointExtension>
            <ns3:atemp>31.0</ns3:atemp>
            <ns3:hr>126</ns3:hr>
          </ns3:TrackPointExtension>
        </extensions>
      </trkpt>
      <trkpt lat="22.5865282304584980010986328125" lon="114.27053195424377918243408203125">
        <ele>132.1999969482421875</ele>
        <time>2026-03-17T03:35:25.000Z</time>
        <extensions>
          <ns3:TrackPointExtension>
            <ns3:atemp>31.0</ns3:atemp>
            <ns3:hr>125</ns3:hr>
          </ns3:TrackPointExtension>
        </extensions>
      </trkpt>
      <trkpt lat="22.5865637697279453277587890625" lon="114.270496666431427001953125">
        <ele>132.1999969482421875</ele>
        <time>2026-03-17T03:35:26.000Z</time>
        <extensions>
          <ns3:TrackPointExtension>
            <ns3:atemp>31.0</ns3:atemp>
            <ns3:hr>125</ns3:hr>
          </ns3:TrackPointExtension>
        </extensions>
      </trkpt>
      <trkpt lat="22.58660106919705867767333984375" lon="114.27046070806682109832763671875">
        <ele>132.399993896484375</ele>
        <time>2026-03-17T03:35:27.000Z</time>
        <extensions>
          <ns3:TrackPointExtension>
            <ns3:atemp>31.0</ns3:atemp>
            <ns3:hr>124</ns3:hr>
          </ns3:TrackPointExtension>
        </extensions>
      </trkpt>
      <trkpt lat="22.58663560263812541961669921875" lon="114.270421229302883148193359375">
        <ele>132.600006103515625</ele>
        <time>2026-03-17T03:35:28.000Z</time>
        <extensions>
          <ns3:TrackPointExtension>
            <ns3:atemp>31.0</ns3:atemp>
            <ns3:hr>125</ns3:hr>
          </ns3:TrackPointExtension>
        </extensions>
      </trkpt>
      <trkpt lat="22.58667080663144588470458984375" lon="114.2703845165669918060302734375">
        <ele>132.600006103515625</ele>
        <time>2026-03-17T03:35:29.000Z</time>
        <extensions>
          <ns3:TrackPointExtension>
            <ns3:atemp>31.0</ns3:atemp>
            <ns3:hr>125</ns3:hr>
          </ns3:TrackPointExtension>
        </extensions>
      </trkpt>
      <trkpt lat="22.5867076031863689422607421875" lon="114.27034688182175159454345703125">
        <ele>132.8000030517578125</ele>
        <time>2026-03-17T03:35:30.000Z</time>
        <extensions>
          <ns3:TrackPointExtension>
            <ns3:atemp>31.0</ns3:atemp>
            <ns3:hr>126</ns3:hr>
          </ns3:TrackPointExtension>
        </extensions>
      </trkpt>
      <trkpt lat="22.58674465119838714599609375" lon="114.2703114263713359832763671875">
        <ele>132.600006103515625</ele>
        <time>2026-03-17T03:35:31.000Z</time>
        <extensions>
          <ns3:TrackPointExtension>
            <ns3:atemp>31.0</ns3:atemp>
            <ns3:hr>127</ns3:hr>
          </ns3:TrackPointExtension>
        </extensions>
      </trkpt>
      <trkpt lat="22.58678345941007137298583984375" lon="114.27027580328285694122314453125">
        <ele>132.600006103515625</ele>
        <time>2026-03-17T03:35:32.000Z</time>
        <extensions>
          <ns3:TrackPointExtension>
            <ns3:atemp>31.0</ns3:atemp>
            <ns3:hr>128</ns3:hr>
          </ns3:TrackPointExtension>
        </extensions>
      </trkpt>
      <trkpt lat="22.586819417774677276611328125" lon="114.27024160511791706085205078125">
        <ele>132.600006103515625</ele>
        <time>2026-03-17T03:35:33.000Z</time>
        <extensions>
          <ns3:TrackPointExtension>
            <ns3:atemp>31.0</ns3:atemp>
            <ns3:hr>129</ns3:hr>
          </ns3:TrackPointExtension>
        </extensions>
      </trkpt>
      <trkpt lat="22.586856968700885772705078125" lon="114.2702084966003894805908203125">
        <ele>132.600006103515625</ele>
        <time>2026-03-17T03:35:34.000Z</time>
        <extensions>
          <ns3:TrackPointExtension>
            <ns3:atemp>31.0</ns3:atemp>
            <ns3:hr>130</ns3:hr>
          </ns3:TrackPointExtension>
        </extensions>
      </trkpt>
      <trkpt lat="22.586894519627094268798828125" lon="114.2701756395399570465087890625">
        <ele>132.600006103515625</ele>
        <time>2026-03-17T03:35:35.000Z</time>
        <extensions>
          <ns3:TrackPointExtension>
            <ns3:atemp>31.0</ns3:atemp>
            <ns3:hr>130</ns3:hr>
          </ns3:TrackPointExtension>
        </extensions>
      </trkpt>
      <trkpt lat="22.5869325734674930572509765625" lon="114.2701461352407932281494140625">
        <ele>132.8000030517578125</ele>
        <time>2026-03-17T03:35:36.000Z</time>
        <extensions>
          <ns3:TrackPointExtension>
            <ns3:atemp>31.0</ns3:atemp>
            <ns3:hr>130</ns3:hr>
          </ns3:TrackPointExtension>
        </extensions>
      </trkpt>
      <trkpt lat="22.586970627307891845703125" lon="114.27011352963745594024658203125">
        <ele>133</ele>
        <time>2026-03-17T03:35:37.000Z</time>
        <extensions>
          <ns3:TrackPointExtension>
            <ns3:atemp>31.0</ns3:atemp>
            <ns3:hr>130</ns3:hr>
          </ns3:TrackPointExtension>
        </extensions>
      </trkpt>
      <trkpt lat="22.5870073400437831878662109375" lon="114.27008184604346752166748046875">
        <ele>133</ele>
        <time>2026-03-17T03:35:38.000Z</time>
        <extensions>
          <ns3:TrackPointExtension>
            <ns3:atemp>31.0</ns3:atemp>
            <ns3:hr>131</ns3:hr>
          </ns3:TrackPointExtension>
        </extensions>
      </trkpt>
      <trkpt lat="22.58704371750354766845703125" lon="114.27004748024046421051025390625">
        <ele>132.600006103515625</ele>
        <time>2026-03-17T03:35:39.000Z</time>
        <extensions>
          <ns3:TrackPointExtension>
            <ns3:atemp>31.0</ns3:atemp>
            <ns3:hr>131</ns3:hr>
          </ns3:TrackPointExtension>
        </extensions>
      </trkpt>
      <trkpt lat="22.587084285914897918701171875" lon="114.270012862980365753173828125">
        <ele>132.600006103515625</ele>
        <time>2026-03-17T03:35:40.000Z</time>
        <extensions>
          <ns3:TrackPointExtension>
            <ns3:atemp>31.0</ns3:atemp>
            <ns3:hr>131</ns3:hr>
          </ns3:TrackPointExtension>
        </extensions>
      </trkpt>
      <trkpt lat="22.5871263630688190460205078125" lon="114.26997908391058444976806640625">
        <ele>132.399993896484375</ele>
        <time>2026-03-17T03:35:41.000Z</time>
        <extensions>
          <ns3:TrackPointExtension>
            <ns3:atemp>31.0</ns3:atemp>
            <ns3:hr>131</ns3:hr>
          </ns3:TrackPointExtension>
        </extensions>
      </trkpt>
      <trkpt lat="22.5871717929840087890625" lon="114.26994614303112030029296875">
        <ele>132.1999969482421875</ele>
        <time>2026-03-17T03:35:42.000Z</time>
        <extensions>
          <ns3:TrackPointExtension>
            <ns3:atemp>31.0</ns3:atemp>
            <ns3:hr>131</ns3:hr>
          </ns3:TrackPointExtension>
        </extensions>
      </trkpt>
      <trkpt lat="22.58721940219402313232421875" lon="114.2699117772281169891357421875">
        <ele>132.1999969482421875</ele>
        <time>2026-03-17T03:35:43.000Z</time>
        <extensions>
          <ns3:TrackPointExtension>
            <ns3:atemp>31.0</ns3:atemp>
            <ns3:hr>131</ns3:hr>
          </ns3:TrackPointExtension>
        </extensions>
      </trkpt>
      <trkpt lat="22.58726692758500576019287109375" lon="114.26987431012094020843505859375">
        <ele>132.399993896484375</ele>
        <time>2026-03-17T03:35:44.000Z</time>
        <extensions>
          <ns3:TrackPointExtension>
            <ns3:atemp>31.0</ns3:atemp>
            <ns3:hr>131</ns3:hr>
          </ns3:TrackPointExtension>
        </extensions>
      </trkpt>
      <trkpt lat="22.5873179733753204345703125" lon="114.269840531051158905029296875">
        <ele>132.399993896484375</ele>
        <time>2026-03-17T03:35:45.000Z</time>
        <extensions>
          <ns3:TrackPointExtension>
            <ns3:atemp>31.0</ns3:atemp>
            <ns3:hr>131</ns3:hr>
          </ns3:TrackPointExtension>
        </extensions>
      </trkpt>
      <trkpt lat="22.58737253956496715545654296875" lon="114.26980398595333099365234375">
        <ele>132.399993896484375</ele>
        <time>2026-03-17T03:35:46.000Z</time>
        <extensions>
          <ns3:TrackPointExtension>
            <ns3:atemp>31.0</ns3:atemp>
            <ns3:hr>131</ns3:hr>
          </ns3:TrackPointExtension>
        </extensions>
      </trkpt>
      <trkpt lat="22.58742903359234333038330078125" lon="114.2697649262845516204833984375">
        <ele>132.399993896484375</ele>
        <time>2026-03-17T03:35:47.000Z</time>
        <extensions>
          <ns3:TrackPointExtension>
            <ns3:atemp>31.0</ns3:atemp>
            <ns3:hr>131</ns3:hr>
          </ns3:TrackPointExtension>
        </extensions>
      </trkpt>
      <trkpt lat="22.587483264505863189697265625" lon="114.26972611807286739349365234375">
        <ele>132.399993896484375</ele>
        <time>2026-03-17T03:35:48.000Z</time>
        <extensions>
          <ns3:TrackPointExtension>
            <ns3:atemp>31.0</ns3:atemp>
            <ns3:hr>131</ns3:hr>
          </ns3:TrackPointExtension>
        </extensions>
      </trkpt>
      <trkpt lat="22.5875407643616199493408203125" lon="114.269692003726959228515625">
        <ele>132.399993896484375</ele>
        <time>2026-03-17T03:35:49.000Z</time>
        <extensions>
          <ns3:TrackPointExtension>
            <ns3:atemp>31.0</ns3:atemp>
            <ns3:hr>130</ns3:hr>
          </ns3:TrackPointExtension>
        </extensions>
      </trkpt>
      <trkpt lat="22.5875974260270595550537109375" lon="114.26966241560876369476318359375">
        <ele>132.399993896484375</ele>
        <time>2026-03-17T03:35:50.000Z</time>
        <extensions>
          <ns3:TrackPointExtension>
            <ns3:atemp>31.0</ns3:atemp>
            <ns3:hr>131</ns3:hr>
          </ns3:TrackPointExtension>
        </extensions>
      </trkpt>
      <trkpt lat="22.5876473821699619293212890625" lon="114.26962888799607753753662109375">
        <ele>132.399993896484375</ele>
        <time>2026-03-17T03:35:51.000Z</time>
        <extensions>
          <ns3:TrackPointExtension>
            <ns3:atemp>31.0</ns3:atemp>
            <ns3:hr>131</ns3:hr>
          </ns3:TrackPointExtension>
        </extensions>
      </trkpt>
      <trkpt lat="22.587697170674800872802734375" lon="114.26960106007754802703857421875">
        <ele>132.600006103515625</ele>
        <time>2026-03-17T03:35:52.000Z</time>
        <extensions>
          <ns3:TrackPointExtension>
            <ns3:atemp>31.0</ns3:atemp>
            <ns3:hr>130</ns3:hr>
          </ns3:TrackPointExtension>
        </extensions>
      </trkpt>
      <trkpt lat="22.5877415947616100311279296875" lon="114.269568622112274169921875">
        <ele>132.8000030517578125</ele>
        <time>2026-03-17T03:35:53.000Z</time>
        <extensions>
          <ns3:TrackPointExtension>
            <ns3:atemp>31.0</ns3:atemp>
            <ns3:hr>131</ns3:hr>
          </ns3:TrackPointExtension>
        </extensions>
      </trkpt>
      <trkpt lat="22.5877885334193706512451171875" lon="114.269539453089237213134765625">
        <ele>133</ele>
        <time>2026-03-17T03:35:54.000Z</time>
        <extensions>
          <ns3:TrackPointExtension>
            <ns3:atemp>31.0</ns3:atemp>
            <ns3:hr>131</ns3:hr>
          </ns3:TrackPointExtension>
        </extensions>
      </trkpt>
      <trkpt lat="22.58783706463873386383056640625" lon="114.2695040814578533172607421875">
        <ele>133</ele>
        <time>2026-03-17T03:35:55.000Z</time>
        <extensions>
          <ns3:TrackPointExtension>
            <ns3:atemp>31.0</ns3:atemp>
            <ns3:hr>131</ns3:hr>
          </ns3:TrackPointExtension>
        </extensions>
      </trkpt>
      <trkpt lat="22.58788702078163623809814453125" lon="114.26947264932096004486083984375">
        <ele>133</ele>
        <time>2026-03-17T03:35:56.000Z</time>
        <extensions>
          <ns3:TrackPointExtension>
            <ns3:atemp>31.0</ns3:atemp>
            <ns3:hr>131</ns3:hr>
          </ns3:TrackPointExtension>
        </extensions>
      </trkpt>
      <trkpt lat="22.58793546818196773529052734375" lon="114.269440881907939910888671875">
        <ele>132.8000030517578125</ele>
        <time>2026-03-17T03:35:57.000Z</time>
        <extensions>
          <ns3:TrackPointExtension>
            <ns3:atemp>31.0</ns3:atemp>
            <ns3:hr>131</ns3:hr>
          </ns3:TrackPointExtension>
        </extensions>
      </trkpt>
      <trkpt lat="22.58798358030617237091064453125" lon="114.26941062323749065399169921875">
        <ele>132.8000030517578125</ele>
        <time>2026-03-17T03:35:58.000Z</time>
        <extensions>
          <ns3:TrackPointExtension>
            <ns3:atemp>31.0</ns3:atemp>
            <ns3:hr>131</ns3:hr>
          </ns3:TrackPointExtension>
        </extensions>
      </trkpt>
      <trkpt lat="22.58803051896393299102783203125" lon="114.26938178949058055877685546875">
        <ele>132.8000030517578125</ele>
        <time>2026-03-17T03:35:59.000Z</time>
        <extensions>
          <ns3:TrackPointExtension>
            <ns3:atemp>31.0</ns3:atemp>
            <ns3:hr>131</ns3:hr>
          </ns3:TrackPointExtension>
        </extensions>
      </trkpt>
      <trkpt lat="22.5880748592317104339599609375" lon="114.26935211755335330963134765625">
        <ele>132.8000030517578125</ele>
        <time>2026-03-17T03:36:00.000Z</time>
        <extensions>
          <ns3:TrackPointExtension>
            <ns3:atemp>31.0</ns3:atemp>
            <ns3:hr>132</ns3:hr>
          </ns3:TrackPointExtension>
        </extensions>
      </trkpt>
      <trkpt lat="22.588116936385631561279296875" lon="114.269324876368045806884765625">
        <ele>133</ele>
        <time>2026-03-17T03:36:01.000Z</time>
        <extensions>
          <ns3:TrackPointExtension>
            <ns3:atemp>31.0</ns3:atemp>
            <ns3:hr>133</ns3:hr>
          </ns3:TrackPointExtension>
        </extensions>
      </trkpt>
      <trkpt lat="22.58815574459731578826904296875" lon="114.2692921869456768035888671875">
        <ele>133</ele>
        <time>2026-03-17T03:36:02.000Z</time>
        <extensions>
          <ns3:TrackPointExtension>
            <ns3:atemp>31.0</ns3:atemp>
            <ns3:hr>133</ns3:hr>
          </ns3:TrackPointExtension>
        </extensions>
      </trkpt>
      <trkpt lat="22.58818902075290679931640625" lon="114.26925555802881717681884765625">
        <ele>133</ele>
        <time>2026-03-17T03:36:03.000Z</time>
        <extensions>
          <ns3:TrackPointExtension>
            <ns3:atemp>31.0</ns3:atemp>
            <ns3:hr>133</ns3:hr>
          </ns3:TrackPointExtension>
        </extensions>
      </trkpt>
      <trkpt lat="22.588217519223690032958984375" lon="114.26921733655035495758056640625">
        <ele>133</ele>
        <time>2026-03-17T03:36:04.000Z</time>
        <extensions>
          <ns3:TrackPointExtension>
            <ns3:atemp>31.0</ns3:atemp>
            <ns3:hr>133</ns3:hr>
          </ns3:TrackPointExtension>
        </extensions>
      </trkpt>
      <trkpt lat="22.58824140764772891998291015625" lon="114.269175343215465545654296875">
        <ele>133</ele>
        <time>2026-03-17T03:36:05.000Z</time>
        <extensions>
          <ns3:TrackPointExtension>
            <ns3:atemp>31.0</ns3:atemp>
            <ns3:hr>132</ns3:hr>
          </ns3:TrackPointExtension>
        </extensions>
      </trkpt>
      <trkpt lat="22.5882478617131710052490234375" lon="114.26912798546254634857177734375">
        <ele>133</ele>
        <time>2026-03-17T03:36:06.000Z</time>
        <extensions>
          <ns3:TrackPointExtension>
            <ns3:atemp>31.0</ns3:atemp>
            <ns3:hr>131</ns3:hr>
          </ns3:TrackPointExtension>
        </extensions>
      </trkpt>
      <trkpt lat="22.58824006654322147369384765625" lon="114.26908322609961032867431640625">
        <ele>133</ele>
        <time>2026-03-17T03:36:07.000Z</time>
        <extensions>
          <ns3:TrackPointExtension>
            <ns3:atemp>31.0</ns3:atemp>
            <ns3:hr>131</ns3:hr>
          </ns3:TrackPointExtension>
        </extensions>
      </trkpt>
      <trkpt lat="22.58822799660265445709228515625" lon="114.26904366351664066314697265625">
        <ele>133.1999969482421875</ele>
        <time>2026-03-17T03:36:08.000Z</time>
        <extensions>
          <ns3:TrackPointExtension>
            <ns3:atemp>31.0</ns3:atemp>
            <ns3:hr>131</ns3:hr>
          </ns3:TrackPointExtension>
        </extensions>
      </trkpt>
      <trkpt lat="22.58820318616926670074462890625" lon="114.2690108902752399444580078125">
        <ele>133.399993896484375</ele>
        <time>2026-03-17T03:36:09.000Z</time>
        <extensions>
          <ns3:TrackPointExtension>
            <ns3:atemp>31.0</ns3:atemp>
            <ns3:hr>131</ns3:hr>
          </ns3:TrackPointExtension>
        </extensions>
      </trkpt>
      <trkpt lat="22.5881730951368808746337890625" lon="114.26898901350796222686767578125">
        <ele>133.600006103515625</ele>
        <time>2026-03-17T03:36:10.000Z</time>
        <extensions>
          <ns3:TrackPointExtension>
            <ns3:atemp>31.0</ns3:atemp>
            <ns3:hr>131</ns3:hr>
          </ns3:TrackPointExtension>
        </extensions>
      </trkpt>
      <trkpt lat="22.58813512511551380157470703125" lon="114.2689699865877628326416015625">
        <ele>133.8000030517578125</ele>
        <time>2026-03-17T03:36:11.000Z</time>
        <extensions>
          <ns3:TrackPointExtension>
            <ns3:atemp>31.0</ns3:atemp>
            <ns3:hr>130</ns3:hr>
          </ns3:TrackPointExtension>
        </extensions>
      </trkpt>
      <trkpt lat="22.58809807710349559783935546875" lon="114.26895112730562686920166015625">
        <ele>134.1999969482421875</ele>
        <time>2026-03-17T03:36:12.000Z</time>
        <extensions>
          <ns3:TrackPointExtension>
            <ns3:atemp>31.0</ns3:atemp>
            <ns3:hr>130</ns3:hr>
          </ns3:TrackPointExtension>
        </extensions>
      </trkpt>
      <trkpt lat="22.58805935271084308624267578125" lon="114.26892749033868312835693359375">
        <ele>134.399993896484375</ele>
        <time>2026-03-17T03:36:13.000Z</time>
        <extensions>
          <ns3:TrackPointExtension>
            <ns3:atemp>31.0</ns3:atemp>
            <ns3:hr>130</ns3:hr>
          </ns3:TrackPointExtension>
        </extensions>
      </trkpt>
      <trkpt lat="22.58802062831819057464599609375" lon="114.26890276372432708740234375">
        <ele>134.600006103515625</ele>
        <time>2026-03-17T03:36:14.000Z</time>
        <extensions>
          <ns3:TrackPointExtension>
            <ns3:atemp>31.0</ns3:atemp>
            <ns3:hr>129</ns3:hr>
          </ns3:TrackPointExtension>
        </extensions>
      </trkpt>
      <trkpt lat="22.58798249065876007080078125" lon="114.26887451671063899993896484375">
        <ele>134.8000030517578125</ele>
        <time>2026-03-17T03:36:15.000Z</time>
        <extensions>
          <ns3:TrackPointExtension>
            <ns3:atemp>31.0</ns3:atemp>
            <ns3:hr>128</ns3:hr>
          </ns3:TrackPointExtension>
        </extensions>
      </trkpt>
      <trkpt lat="22.587946616113185882568359375" lon="114.268848784267902374267578125">
        <ele>134.8000030517578125</ele>
        <time>2026-03-17T03:36:16.000Z</time>
        <extensions>
          <ns3:TrackPointExtension>
            <ns3:atemp>31.0</ns3:atemp>
            <ns3:hr>126</ns3:hr>
          </ns3:TrackPointExtension>
        </extensions>
      </trkpt>
      <trkpt lat="22.5879122503101825714111328125" lon="114.268821291625499725341796875">
        <ele>135</ele>
        <time>2026-03-17T03:36:17.000Z</time>
        <extensions>
          <ns3:TrackPointExtension>
            <ns3:atemp>31.0</ns3:atemp>
            <ns3:hr>124</ns3:hr>
          </ns3:TrackPointExtension>
        </extensions>
      </trkpt>
      <trkpt lat="22.5878787226974964141845703125" lon="114.26879413425922393798828125">
        <ele>135</ele>
        <time>2026-03-17T03:36:18.000Z</time>
        <extensions>
          <ns3:TrackPointExtension>
            <ns3:atemp>31.0</ns3:atemp>
            <ns3:hr>124</ns3:hr>
          </ns3:TrackPointExtension>
        </extensions>
      </trkpt>
      <trkpt lat="22.58784527890384197235107421875" lon="114.2687661387026309967041015625">
        <ele>135.1999969482421875</ele>
        <time>2026-03-17T03:36:19.000Z</time>
        <extensions>
          <ns3:TrackPointExtension>
            <ns3:atemp>31.0</ns3:atemp>
            <ns3:hr>123</ns3:hr>
          </ns3:TrackPointExtension>
        </extensions>
      </trkpt>
      <trkpt lat="22.5878103263676166534423828125" lon="114.26873755641281604766845703125">
        <ele>135.399993896484375</ele>
        <time>2026-03-17T03:36:20.000Z</time>
        <extensions>
          <ns3:TrackPointExtension>
            <ns3:atemp>31.0</ns3:atemp>
            <ns3:hr>123</ns3:hr>
          </ns3:TrackPointExtension>
        </extensions>
      </trkpt>
      <trkpt lat="22.5877744518220424652099609375" lon="114.2687094770371913909912109375">
        <ele>135.399993896484375</ele>
        <time>2026-03-17T03:36:21.000Z</time>
        <extensions>
          <ns3:TrackPointExtension>
            <ns3:atemp>31.0</ns3:atemp>
            <ns3:hr>123</ns3:hr>
          </ns3:TrackPointExtension>
        </extensions>
      </trkpt>
      <trkpt lat="22.5877375714480876922607421875" lon="114.26867603324353694915771484375">
        <ele>135.399993896484375</ele>
        <time>2026-03-17T03:36:22.000Z</time>
        <extensions>
          <ns3:TrackPointExtension>
            <ns3:atemp>31.0</ns3:atemp>
            <ns3:hr>124</ns3:hr>
          </ns3:TrackPointExtension>
        </extensions>
      </trkpt>
      <trkpt lat="22.58770060725510120391845703125" lon="114.2686414159834384918212890625">
        <ele>135.399993896484375</ele>
        <time>2026-03-17T03:36:23.000Z</time>
        <extensions>
          <ns3:TrackPointExtension>
            <ns3:atemp>31.0</ns3:atemp>
            <ns3:hr>124</ns3:hr>
          </ns3:TrackPointExtension>
        </extensions>
      </trkpt>
      <trkpt lat="22.5876648165285587310791015625" lon="114.2686078883707523345947265625">
        <ele>135.399993896484375</ele>
        <time>2026-03-17T03:36:24.000Z</time>
        <extensions>
          <ns3:TrackPointExtension>
            <ns3:atemp>31.0</ns3:atemp>
            <ns3:hr>124</ns3:hr>
          </ns3:TrackPointExtension>
        </extensions>
      </trkpt>
      <trkpt lat="22.58762575685977935791015625" lon="114.26857444457709789276123046875">
        <ele>135.399993896484375</ele>
        <time>2026-03-17T03:36:25.000Z</time>
        <extensions>
          <ns3:TrackPointExtension>
            <ns3:atemp>31.0</ns3:atemp>
            <ns3:hr>125</ns3:hr>
          </ns3:TrackPointExtension>
        </extensions>
      </trkpt>
      <trkpt lat="22.5875913910567760467529296875" lon="114.2685408331453800201416015625">
        <ele>135.1999969482421875</ele>
        <time>2026-03-17T03:36:26.000Z</time>
        <extensions>
          <ns3:TrackPointExtension>
            <ns3:atemp>31.0</ns3:atemp>
            <ns3:hr>125</ns3:hr>
          </ns3:TrackPointExtension>
        </extensions>
      </trkpt>
      <trkpt lat="22.58756004273891448974609375" lon="114.2685076408088207244873046875">
        <ele>135.1999969482421875</ele>
        <time>2026-03-17T03:36:27.000Z</time>
        <extensions>
          <ns3:TrackPointExtension>
            <ns3:atemp>31.0</ns3:atemp>
            <ns3:hr>126</ns3:hr>
          </ns3:TrackPointExtension>
        </extensions>
      </trkpt>
      <trkpt lat="22.58752919733524322509765625" lon="114.26847570575773715972900390625">
        <ele>135.1999969482421875</ele>
        <time>2026-03-17T03:36:28.000Z</time>
        <extensions>
          <ns3:TrackPointExtension>
            <ns3:atemp>31.0</ns3:atemp>
            <ns3:hr>127</ns3:hr>
          </ns3:TrackPointExtension>
        </extensions>
      </trkpt>
      <trkpt lat="22.5874975137412548065185546875" lon="114.26844536326825618743896484375">
        <ele>135.1999969482421875</ele>
        <time>2026-03-17T03:36:29.000Z</time>
        <extensions>
          <ns3:TrackPointExtension>
            <ns3:atemp>31.0</ns3:atemp>
            <ns3:hr>130</ns3:hr>
          </ns3:TrackPointExtension>
        </extensions>
      </trkpt>
      <trkpt lat="22.58746792562305927276611328125" lon="114.268412254750728607177734375">
        <ele>135.399993896484375</ele>
        <time>2026-03-17T03:36:30.000Z</time>
        <extensions>
          <ns3:TrackPointExtension>
            <ns3:atemp>31.0</ns3:atemp>
            <ns3:hr>131</ns3:hr>
          </ns3:TrackPointExtension>
        </extensions>
      </trkpt>
      <trkpt lat="22.5874374993145465850830078125" lon="114.26837830804288387298583984375">
        <ele>135.600006103515625</ele>
        <time>2026-03-17T03:36:31.000Z</time>
        <extensions>
          <ns3:TrackPointExtension>
            <ns3:atemp>31.0</ns3:atemp>
            <ns3:hr>133</ns3:hr>
          </ns3:TrackPointExtension>
        </extensions>
      </trkpt>
      <trkpt lat="22.5874063186347484588623046875" lon="114.2683406732976436614990234375">
        <ele>135.8000030517578125</ele>
        <time>2026-03-17T03:36:32.000Z</time>
        <extensions>
          <ns3:TrackPointExtension>
            <ns3:atemp>31.0</ns3:atemp>
            <ns3:hr>134</ns3:hr>
          </ns3:TrackPointExtension>
        </extensions>
      </trkpt>
      <trkpt lat="22.58737958036363124847412109375" lon="114.2683017812669277191162109375">
        <ele>136</ele>
        <time>2026-03-17T03:36:33.000Z</time>
        <extensions>
          <ns3:TrackPointExtension>
            <ns3:atemp>31.0</ns3:atemp>
            <ns3:hr>135</ns3:hr>
          </ns3:TrackPointExtension>
        </extensions>
      </trkpt>
      <trkpt lat="22.5873466394841670989990234375" lon="114.268261380493640899658203125">
        <ele>136</ele>
        <time>2026-03-17T03:36:34.000Z</time>
        <extensions>
          <ns3:TrackPointExtension>
            <ns3:atemp>31.0</ns3:atemp>
            <ns3:hr>135</ns3:hr>
          </ns3:TrackPointExtension>
        </extensions>
      </trkpt>
      <trkpt lat="22.58731386624276638031005859375" lon="114.26821838133037090301513671875">
        <ele>136.1999969482421875</ele>
        <time>2026-03-17T03:36:35.000Z</time>
        <extensions>
          <ns3:TrackPointExtension>
            <ns3:atemp>31.0</ns3:atemp>
            <ns3:hr>135</ns3:hr>
          </ns3:TrackPointExtension>
        </extensions>
      </trkpt>
      <trkpt lat="22.5872809253633022308349609375" lon="114.26817261613905429840087890625">
        <ele>136.1999969482421875</ele>
        <time>2026-03-17T03:36:36.000Z</time>
        <extensions>
          <ns3:TrackPointExtension>
            <ns3:atemp>31.0</ns3:atemp>
            <ns3:hr>136</ns3:hr>
          </ns3:TrackPointExtension>
        </extensions>
      </trkpt>
      <trkpt lat="22.58725150488317012786865234375" lon="114.26812785677611827850341796875">
        <ele>136.1999969482421875</ele>
        <time>2026-03-17T03:36:37.000Z</time>
        <extensions>
          <ns3:TrackPointExtension>
            <ns3:atemp>31.0</ns3:atemp>
            <ns3:hr>137</ns3:hr>
          </ns3:TrackPointExtension>
        </extensions>
      </trkpt>
      <trkpt lat="22.5872240960597991943359375" lon="114.26808259449899196624755859375">
        <ele>136.399993896484375</ele>
        <time>2026-03-17T03:36:38.000Z</time>
        <extensions>
          <ns3:TrackPointExtension>
            <ns3:atemp>31.0</ns3:atemp>
            <ns3:hr>138</ns3:hr>
          </ns3:TrackPointExtension>
        </extensions>
      </trkpt>
      <trkpt lat="22.58719685487449169158935546875" lon="114.268037416040897369384765625">
        <ele>136.399993896484375</ele>
        <time>2026-03-17T03:36:39.000Z</time>
        <extensions>
          <ns3:TrackPointExtension>
            <ns3:atemp>31.0</ns3:atemp>
            <ns3:hr>140</ns3:hr>
          </ns3:TrackPointExtension>
        </extensions>
      </trkpt>
      <trkpt lat="22.58716433309018611907958984375" lon="114.2679926566779613494873046875">
        <ele>136.600006103515625</ele>
        <time>2026-03-17T03:36:40.000Z</time>
        <extensions>
          <ns3:TrackPointExtension>
            <ns3:atemp>31.0</ns3:atemp>
            <ns3:hr>140</ns3:hr>
          </ns3:TrackPointExtension>
        </extensions>
      </trkpt>
      <trkpt lat="22.58712611161172389984130859375" lon="114.26795066334307193756103515625">
        <ele>136.8000030517578125</ele>
        <time>2026-03-17T03:36:41.000Z</time>
        <extensions>
          <ns3:TrackPointExtension>
            <ns3:atemp>31.0</ns3:atemp>
            <ns3:hr>140</ns3:hr>
          </ns3:TrackPointExtension>
        </extensions>
      </trkpt>
      <trkpt lat="22.58708789013326168060302734375" lon="114.26791361533105373382568359375">
        <ele>136.8000030517578125</ele>
        <time>2026-03-17T03:36:42.000Z</time>
        <extensions>
          <ns3:TrackPointExtension>
            <ns3:atemp>31.0</ns3:atemp>
            <ns3:hr>140</ns3:hr>
          </ns3:TrackPointExtension>
        </extensions>
      </trkpt>
      <trkpt lat="22.58705318905413150787353515625" lon="114.267876148223876953125">
        <ele>137</ele>
        <time>2026-03-17T03:36:43.000Z</time>
        <extensions>
          <ns3:TrackPointExtension>
            <ns3:atemp>31.0</ns3:atemp>
            <ns3:hr>139</ns3:hr>
          </ns3:TrackPointExtension>
        </extensions>
      </trkpt>
      <trkpt lat="22.587023265659809112548828125" lon="114.267838262021541595458984375">
        <ele>137</ele>
        <time>2026-03-17T03:36:44.000Z</time>
        <extensions>
          <ns3:TrackPointExtension>
            <ns3:atemp>31.0</ns3:atemp>
            <ns3:hr>140</ns3:hr>
          </ns3:TrackPointExtension>
        </extensions>
      </trkpt>
      <trkpt lat="22.58699099533259868621826171875" lon="114.26780180074274539947509765625">
        <ele>137</ele>
        <time>2026-03-17T03:36:45.000Z</time>
        <extensions>
          <ns3:TrackPointExtension>
            <ns3:atemp>31.0</ns3:atemp>
            <ns3:hr>140</ns3:hr>
          </ns3:TrackPointExtension>
        </extensions>
      </trkpt>
      <trkpt lat="22.5869587250053882598876953125" lon="114.26776357926428318023681640625">
        <ele>137</ele>
        <time>2026-03-17T03:36:46.000Z</time>
        <extensions>
          <ns3:TrackPointExtension>
            <ns3:atemp>31.0</ns3:atemp>
            <ns3:hr>141</ns3:hr>
          </ns3:TrackPointExtension>
        </extensions>
      </trkpt>
      <trkpt lat="22.586926706135272979736328125" lon="114.26772669889032840728759765625">
        <ele>137</ele>
        <time>2026-03-17T03:36:47.000Z</time>
        <extensions>
          <ns3:TrackPointExtension>
            <ns3:atemp>31.0</ns3:atemp>
            <ns3:hr>142</ns3:hr>
          </ns3:TrackPointExtension>
        </extensions>
      </trkpt>
      <trkpt lat="22.58689527399837970733642578125" lon="114.2676852084696292877197265625">
        <ele>137.1999969482421875</ele>
        <time>2026-03-17T03:36:48.000Z</time>
        <extensions>
          <ns3:TrackPointExtension>
            <ns3:atemp>31.0</ns3:atemp>
            <ns3:hr>142</ns3:hr>
          </ns3:TrackPointExtension>
        </extensions>
      </trkpt>
      <trkpt lat="22.58686090819537639617919921875" lon="114.267647825181484222412109375">
        <ele>137.399993896484375</ele>
        <time>2026-03-17T03:36:49.000Z</time>
        <extensions>
          <ns3:TrackPointExtension>
            <ns3:atemp>31.0</ns3:atemp>
            <ns3:hr>142</ns3:hr>
          </ns3:TrackPointExtension>
        </extensions>
      </trkpt>
      <trkpt lat="22.58682972751557826995849609375" lon="114.26761069335043430328369140625">
        <ele>137.399993896484375</ele>
        <time>2026-03-17T03:36:50.000Z</time>
        <extensions>
          <ns3:TrackPointExtension>
            <ns3:atemp>31.0</ns3:atemp>
            <ns3:hr>143</ns3:hr>
          </ns3:TrackPointExtension>
        </extensions>
      </trkpt>
      <trkpt lat="22.58679569698870182037353515625" lon="114.26757314242422580718994140625">
        <ele>137.399993896484375</ele>
        <time>2026-03-17T03:36:51.000Z</time>
        <extensions>
          <ns3:TrackPointExtension>
            <ns3:atemp>31.0</ns3:atemp>
            <ns3:hr>144</ns3:hr>
          </ns3:TrackPointExtension>
        </extensions>
      </trkpt>
      <trkpt lat="22.586764432489871978759765625" lon="114.26753022707998752593994140625">
        <ele>137.600006103515625</ele>
        <time>2026-03-17T03:36:52.000Z</time>
        <extensions>
          <ns3:TrackPointExtension>
            <ns3:atemp>31.0</ns3:atemp>
            <ns3:hr>144</ns3:hr>
          </ns3:TrackPointExtension>
        </extensions>
      </trkpt>
      <trkpt lat="22.58673350326716899871826171875" lon="114.2674894072115421295166015625">
        <ele>137.600006103515625</ele>
        <time>2026-03-17T03:36:53.000Z</time>
        <extensions>
          <ns3:TrackPointExtension>
            <ns3:atemp>31.0</ns3:atemp>
            <ns3:hr>144</ns3:hr>
          </ns3:TrackPointExtension>
        </extensions>
      </trkpt>
      <trkpt lat="22.58670039474964141845703125" lon="114.26744858734309673309326171875">
        <ele>137.600006103515625</ele>
        <time>2026-03-17T03:36:54.000Z</time>
        <extensions>
          <ns3:TrackPointExtension>
            <ns3:atemp>31.0</ns3:atemp>
            <ns3:hr>145</ns3:hr>
          </ns3:TrackPointExtension>
        </extensions>
      </trkpt>
      <trkpt lat="22.58667047135531902313232421875" lon="114.26740885712206363677978515625">
        <ele>137.8000030517578125</ele>
        <time>2026-03-17T03:36:55.000Z</time>
        <extensions>
          <ns3:TrackPointExtension>
            <ns3:atemp>31.0</ns3:atemp>
            <ns3:hr>145</ns3:hr>
          </ns3:TrackPointExtension>
        </extensions>
      </trkpt>
      <trkpt lat="22.5866378657519817352294921875" lon="114.26736912690103054046630859375">
        <ele>137.8000030517578125</ele>
        <time>2026-03-17T03:36:56.000Z</time>
        <extensions>
          <ns3:TrackPointExtension>
            <ns3:atemp>31.0</ns3:atemp>
            <ns3:hr>145</ns3:hr>
          </ns3:TrackPointExtension>
        </extensions>
      </trkpt>
      <trkpt lat="22.58660693652927875518798828125" lon="114.267329312860965728759765625">
        <ele>137.8000030517578125</ele>
        <time>2026-03-17T03:36:57.000Z</time>
        <extensions>
          <ns3:TrackPointExtension>
            <ns3:atemp>31.0</ns3:atemp>
            <ns3:hr>145</ns3:hr>
          </ns3:TrackPointExtension>
        </extensions>
      </trkpt>
      <trkpt lat="22.586576677858829498291015625" lon="114.26728539168834686279296875">
        <ele>137.8000030517578125</ele>
        <time>2026-03-17T03:36:58.000Z</time>
        <extensions>
          <ns3:TrackPointExtension>
            <ns3:atemp>31.0</ns3:atemp>
            <ns3:hr>145</ns3:hr>
          </ns3:TrackPointExtension>
        </extensions>
      </trkpt>
      <trkpt lat="22.5865426473319530487060546875" lon="114.26724608056247234344482421875">
        <ele>137.8000030517578125</ele>
        <time>2026-03-17T03:36:59.000Z</time>
        <extensions>
          <ns3:TrackPointExtension>
            <ns3:atemp>31.0</ns3:atemp>
            <ns3:hr>145</ns3:hr>
          </ns3:TrackPointExtension>
        </extensions>
      </trkpt>
      <trkpt lat="22.58651037700474262237548828125" lon="114.26720534451305866241455078125">
        <ele>137.8000030517578125</ele>
        <time>2026-03-17T03:37:00.000Z</time>
        <extensions>
          <ns3:TrackPointExtension>
            <ns3:atemp>31.0</ns3:atemp>
            <ns3:hr>146</ns3:hr>
          </ns3:TrackPointExtension>
        </extensions>
      </trkpt>
      <trkpt lat="22.586477100849151611328125" lon="114.26716946996748447418212890625">
        <ele>137.600006103515625</ele>
        <time>2026-03-17T03:37:01.000Z</time>
        <extensions>
          <ns3:TrackPointExtension>
            <ns3:atemp>31.0</ns3:atemp>
            <ns3:hr>145</ns3:hr>
          </ns3:TrackPointExtension>
        </extensions>
      </trkpt>
      <trkpt lat="22.5864407233893871307373046875" lon="114.2671323381364345550537109375">
        <ele>137.600006103515625</ele>
        <time>2026-03-17T03:37:02.000Z</time>
        <extensions>
          <ns3:TrackPointExtension>
            <ns3:atemp>31.0</ns3:atemp>
            <ns3:hr>145</ns3:hr>
          </ns3:TrackPointExtension>
        </extensions>
      </trkpt>
      <trkpt lat="22.58640401065349578857421875" lon="114.2670957930386066436767578125">
        <ele>137.600006103515625</ele>
        <time>2026-03-17T03:37:03.000Z</time>
        <extensions>
          <ns3:TrackPointExtension>
            <ns3:atemp>31.0</ns3:atemp>
            <ns3:hr>144</ns3:hr>
          </ns3:TrackPointExtension>
        </extensions>
      </trkpt>
      <trkpt lat="22.58636704646050930023193359375" lon="114.26705882884562015533447265625">
        <ele>137.600006103515625</ele>
        <time>2026-03-17T03:37:04.000Z</time>
        <extensions>
          <ns3:TrackPointExtension>
            <ns3:atemp>31.0</ns3:atemp>
            <ns3:hr>143</ns3:hr>
          </ns3:TrackPointExtension>
        </extensions>
      </trkpt>
      <trkpt lat="22.586332596838474273681640625" lon="114.267017841339111328125">
        <ele>137.8000030517578125</ele>
        <time>2026-03-17T03:37:05.000Z</time>
        <extensions>
          <ns3:TrackPointExtension>
            <ns3:atemp>31.0</ns3:atemp>
            <ns3:hr>143</ns3:hr>
          </ns3:TrackPointExtension>
        </extensions>
      </trkpt>
      <trkpt lat="22.58630183525383472442626953125" lon="114.26697936840355396270751953125">
        <ele>138</ele>
        <time>2026-03-17T03:37:06.000Z</time>
        <extensions>
          <ns3:TrackPointExtension>
            <ns3:atemp>31.0</ns3:atemp>
            <ns3:hr>144</ns3:hr>
          </ns3:TrackPointExtension>
        </extensions>
      </trkpt>
      <trkpt lat="22.58626814000308513641357421875" lon="114.26694282330572605133056640625">
        <ele>138</ele>
        <time>2026-03-17T03:37:07.000Z</time>
        <extensions>
          <ns3:TrackPointExtension>
            <ns3:atemp>31.0</ns3:atemp>
            <ns3:hr>144</ns3:hr>
          </ns3:TrackPointExtension>
        </extensions>
      </trkpt>
      <trkpt lat="22.58623930625617504119873046875" lon="114.2669060267508029937744140625">
        <ele>138</ele>
        <time>2026-03-17T03:37:08.000Z</time>
        <extensions>
          <ns3:TrackPointExtension>
            <ns3:atemp>31.0</ns3:atemp>
            <ns3:hr>144</ns3:hr>
          </ns3:TrackPointExtension>
        </extensions>
      </trkpt>
      <trkpt lat="22.58621064014732837677001953125" lon="114.2668718285858631134033203125">
        <ele>138.1999969482421875</ele>
        <time>2026-03-17T03:37:09.000Z</time>
        <extensions>
          <ns3:TrackPointExtension>
            <ns3:atemp>31.0</ns3:atemp>
            <ns3:hr>144</ns3:hr>
          </ns3:TrackPointExtension>
        </extensions>
      </trkpt>
      <trkpt lat="22.58617979474365711212158203125" lon="114.266843162477016448974609375">
        <ele>138.1999969482421875</ele>
        <time>2026-03-17T03:37:10.000Z</time>
        <extensions>
          <ns3:TrackPointExtension>
            <ns3:atemp>31.0</ns3:atemp>
            <ns3:hr>144</ns3:hr>
          </ns3:TrackPointExtension>
        </extensions>
      </trkpt>
      <trkpt lat="22.5861483626067638397216796875" lon="114.2668124847114086151123046875">
        <ele>138.1999969482421875</ele>
        <time>2026-03-17T03:37:11.000Z</time>
        <extensions>
          <ns3:TrackPointExtension>
            <ns3:atemp>31.0</ns3:atemp>
            <ns3:hr>144</ns3:hr>
          </ns3:TrackPointExtension>
        </extensions>
      </trkpt>
      <trkpt lat="22.58611542172729969024658203125" lon="114.26677979528903961181640625">
        <ele>138.1999969482421875</ele>
        <time>2026-03-17T03:37:12.000Z</time>
        <extensions>
          <ns3:TrackPointExtension>
            <ns3:atemp>31.0</ns3:atemp>
            <ns3:hr>144</ns3:hr>
          </ns3:TrackPointExtension>
        </extensions>
      </trkpt>
      <trkpt lat="22.5860813073813915252685546875" lon="114.26674970425665378570556640625">
        <ele>138</ele>
        <time>2026-03-17T03:37:13.000Z</time>
        <extensions>
          <ns3:TrackPointExtension>
            <ns3:atemp>31.0</ns3:atemp>
            <ns3:hr>145</ns3:hr>
          </ns3:TrackPointExtension>
        </extensions>
      </trkpt>
      <trkpt lat="22.58605121634900569915771484375" lon="114.26671617664396762847900390625">
        <ele>137.8000030517578125</ele>
        <time>2026-03-17T03:37:14.000Z</time>
        <extensions>
          <ns3:TrackPointExtension>
            <ns3:atemp>31.0</ns3:atemp>
            <ns3:hr>145</ns3:hr>
          </ns3:TrackPointExtension>
        </extensions>
      </trkpt>
      <trkpt lat="22.58602271787822246551513671875" lon="114.26667979918420314788818359375">
        <ele>137.8000030517578125</ele>
        <time>2026-03-17T03:37:15.000Z</time>
        <extensions>
          <ns3:TrackPointExtension>
            <ns3:atemp>31.0</ns3:atemp>
            <ns3:hr>146</ns3:hr>
          </ns3:TrackPointExtension>
        </extensions>
      </trkpt>
      <trkpt lat="22.58599673397839069366455078125" lon="114.266637973487377166748046875">
        <ele>137.600006103515625</ele>
        <time>2026-03-17T03:37:16.000Z</time>
        <extensions>
          <ns3:TrackPointExtension>
            <ns3:atemp>31.0</ns3:atemp>
            <ns3:hr>146</ns3:hr>
          </ns3:TrackPointExtension>
        </extensions>
      </trkpt>
      <trkpt lat="22.58596681058406829833984375" lon="114.26659681834280490875244140625">
        <ele>137.600006103515625</ele>
        <time>2026-03-17T03:37:17.000Z</time>
        <extensions>
          <ns3:TrackPointExtension>
            <ns3:atemp>31.0</ns3:atemp>
            <ns3:hr>146</ns3:hr>
          </ns3:TrackPointExtension>
        </extensions>
      </trkpt>
      <trkpt lat="22.58593487553298473358154296875" lon="114.26655448973178863525390625">
        <ele>137.600006103515625</ele>
        <time>2026-03-17T03:37:18.000Z</time>
        <extensions>
          <ns3:TrackPointExtension>
            <ns3:atemp>31.0</ns3:atemp>
            <ns3:hr>145</ns3:hr>
          </ns3:TrackPointExtension>
        </extensions>
      </trkpt>
      <trkpt lat="22.5859005935490131378173828125" lon="114.2665124125778675079345703125">
        <ele>137.600006103515625</ele>
        <time>2026-03-17T03:37:19.000Z</time>
        <extensions>
          <ns3:TrackPointExtension>
            <ns3:atemp>31.0</ns3:atemp>
            <ns3:hr>145</ns3:hr>
          </ns3:TrackPointExtension>
        </extensions>
      </trkpt>
      <trkpt lat="22.58586647920310497283935546875" lon="114.26646974869072437286376953125">
        <ele>137.600006103515625</ele>
        <time>2026-03-17T03:37:20.000Z</time>
        <extensions>
          <ns3:TrackPointExtension>
            <ns3:atemp>31.0</ns3:atemp>
            <ns3:hr>145</ns3:hr>
          </ns3:TrackPointExtension>
        </extensions>
      </trkpt>
      <trkpt lat="22.5858308561146259307861328125" lon="114.26642465405166149139404296875">
        <ele>137.600006103515625</ele>
        <time>2026-03-17T03:37:21.000Z</time>
        <extensions>
          <ns3:TrackPointExtension>
            <ns3:atemp>31.0</ns3:atemp>
            <ns3:hr>144</ns3:hr>
          </ns3:TrackPointExtension>
        </extensions>
      </trkpt>
      <trkpt lat="22.58579322136938571929931640625" lon="114.26638173870742321014404296875">
        <ele>137.399993896484375</ele>
        <time>2026-03-17T03:37:22.000Z</time>
        <extensions>
          <ns3:TrackPointExtension>
            <ns3:atemp>31.0</ns3:atemp>
            <ns3:hr>144</ns3:hr>
          </ns3:TrackPointExtension>
        </extensions>
      </trkpt>
      <trkpt lat="22.58575784973800182342529296875" lon="114.2663363926112651824951171875">
        <ele>137.1999969482421875</ele>
        <time>2026-03-17T03:37:23.000Z</time>
        <extensions>
          <ns3:TrackPointExtension>
            <ns3:atemp>31.0</ns3:atemp>
            <ns3:hr>143</ns3:hr>
          </ns3:TrackPointExtension>
        </extensions>
      </trkpt>
      <trkpt lat="22.585718370974063873291015625" lon="114.26629339344799518585205078125">
        <ele>137.1999969482421875</ele>
        <time>2026-03-17T03:37:24.000Z</time>
        <extensions>
          <ns3:TrackPointExtension>
            <ns3:atemp>31.0</ns3:atemp>
            <ns3:hr>142</ns3:hr>
          </ns3:TrackPointExtension>
        </extensions>
      </trkpt>
      <trkpt lat="22.58568190969526767730712890625" lon="114.26625332795083522796630859375">
        <ele>137</ele>
        <time>2026-03-17T03:37:25.000Z</time>
        <extensions>
          <ns3:TrackPointExtension>
            <ns3:atemp>31.0</ns3:atemp>
            <ns3:hr>142</ns3:hr>
          </ns3:TrackPointExtension>
        </extensions>
      </trkpt>
      <trkpt lat="22.5856482982635498046875" lon="114.2662143521010875701904296875">
        <ele>137</ele>
        <time>2026-03-17T03:37:26.000Z</time>
        <extensions>
          <ns3:TrackPointExtension>
            <ns3:atemp>31.0</ns3:atemp>
            <ns3:hr>141</ns3:hr>
          </ns3:TrackPointExtension>
        </extensions>
      </trkpt>
      <trkpt lat="22.58561552502214908599853515625" lon="114.26617671735584735870361328125">
        <ele>137.1999969482421875</ele>
        <time>2026-03-17T03:37:27.000Z</time>
        <extensions>
          <ns3:TrackPointExtension>
            <ns3:atemp>31.0</ns3:atemp>
            <ns3:hr>141</ns3:hr>
          </ns3:TrackPointExtension>
        </extensions>
      </trkpt>
      <trkpt lat="22.58558350615203380584716796875" lon="114.26613631658256053924560546875">
        <ele>137.399993896484375</ele>
        <time>2026-03-17T03:37:28.000Z</time>
        <extensions>
          <ns3:TrackPointExtension>
            <ns3:atemp>31.0</ns3:atemp>
            <ns3:hr>141</ns3:hr>
          </ns3:TrackPointExtension>
        </extensions>
      </trkpt>
      <trkpt lat="22.5855539180338382720947265625" lon="114.266095496714115142822265625">
        <ele>137.600006103515625</ele>
        <time>2026-03-17T03:37:29.000Z</time>
        <extensions>
          <ns3:TrackPointExtension>
            <ns3:atemp>31.0</ns3:atemp>
            <ns3:hr>141</ns3:hr>
          </ns3:TrackPointExtension>
        </extensions>
      </trkpt>
      <trkpt lat="22.58552550338208675384521484375" lon="114.2660577781498432159423828125">
        <ele>137.600006103515625</ele>
        <time>2026-03-17T03:37:30.000Z</time>
        <extensions>
          <ns3:TrackPointExtension>
            <ns3:atemp>31.0</ns3:atemp>
            <ns3:hr>141</ns3:hr>
          </ns3:TrackPointExtension>
        </extensions>
      </trkpt>
      <trkpt lat="22.5854962505400180816650390625" lon="114.26602148450911045074462890625">
        <ele>137.600006103515625</ele>
        <time>2026-03-17T03:37:31.000Z</time>
        <extensions>
          <ns3:TrackPointExtension>
            <ns3:atemp>31.0</ns3:atemp>
            <ns3:hr>141</ns3:hr>
          </ns3:TrackPointExtension>
        </extensions>
      </trkpt>
      <trkpt lat="22.58547102101147174835205078125" lon="114.265984855592250823974609375">
        <ele>137.8000030517578125</ele>
        <time>2026-03-17T03:37:32.000Z</time>
        <extensions>
          <ns3:TrackPointExtension>
            <ns3:atemp>31.0</ns3:atemp>
            <ns3:hr>140</ns3:hr>
          </ns3:TrackPointExtension>
        </extensions>
      </trkpt>
      <trkpt lat="22.5854442827403545379638671875" lon="114.2659471370279788970947265625">
        <ele>138</ele>
        <time>2026-03-17T03:37:33.000Z</time>
        <extensions>
          <ns3:TrackPointExtension>
            <ns3:atemp>31.0</ns3:atemp>
            <ns3:hr>141</ns3:hr>
          </ns3:TrackPointExtension>
        </extensions>
      </trkpt>
      <trkpt lat="22.58541218005120754241943359375" lon="114.26591402851045131683349609375">
        <ele>138</ele>
        <time>2026-03-17T03:37:34.000Z</time>
        <extensions>
          <ns3:TrackPointExtension>
            <ns3:atemp>31.0</ns3:atemp>
            <ns3:hr>141</ns3:hr>
          </ns3:TrackPointExtension>
        </extensions>
      </trkpt>
      <trkpt lat="22.58538602851331233978271484375" lon="114.26587589085102081298828125">
        <ele>138.1999969482421875</ele>
        <time>2026-03-17T03:37:35.000Z</time>
        <extensions>
          <ns3:TrackPointExtension>
            <ns3:atemp>31.0</ns3:atemp>
            <ns3:hr>140</ns3:hr>
          </ns3:TrackPointExtension>
        </extensions>
      </trkpt>
      <trkpt lat="22.58535526692867279052734375" lon="114.2658408544957637786865234375">
        <ele>138.399993896484375</ele>
        <time>2026-03-17T03:37:36.000Z</time>
        <extensions>
          <ns3:TrackPointExtension>
            <ns3:atemp>31.0</ns3:atemp>
            <ns3:hr>141</ns3:hr>
          </ns3:TrackPointExtension>
        </extensions>
      </trkpt>
      <trkpt lat="22.58532651700079441070556640625" lon="114.26580539904534816741943359375">
        <ele>138.1999969482421875</ele>
        <time>2026-03-17T03:37:37.000Z</time>
        <extensions>
          <ns3:TrackPointExtension>
            <ns3:atemp>31.0</ns3:atemp>
            <ns3:hr>141</ns3:hr>
          </ns3:TrackPointExtension>
        </extensions>
      </trkpt>
      <trkpt lat="22.58530103601515293121337890625" lon="114.26576851867139339447021484375">
        <ele>138.1999969482421875</ele>
        <time>2026-03-17T03:37:38.000Z</time>
        <extensions>
          <ns3:TrackPointExtension>
            <ns3:atemp>31.0</ns3:atemp>
            <ns3:hr>140</ns3:hr>
          </ns3:TrackPointExtension>
        </extensions>
      </trkpt>
      <trkpt lat="22.58527756668627262115478515625" lon="114.265732727944850921630859375">
        <ele>138.1999969482421875</ele>
        <time>2026-03-17T03:37:39.000Z</time>
        <extensions>
          <ns3:TrackPointExtension>
            <ns3:atemp>31.0</ns3:atemp>
            <ns3:hr>140</ns3:hr>
          </ns3:TrackPointExtension>
        </extensions>
      </trkpt>
      <trkpt lat="22.58525493554770946502685546875" lon="114.265695512294769287109375">
        <ele>138</ele>
        <time>2026-03-17T03:37:40.000Z</time>
        <extensions>
          <ns3:TrackPointExtension>
            <ns3:atemp>31.0</ns3:atemp>
            <ns3:hr>139</ns3:hr>
          </ns3:TrackPointExtension>
        </extensions>
      </trkpt>
      <trkpt lat="22.58523012511432170867919921875" lon="114.26566265523433685302734375">
        <ele>138</ele>
        <time>2026-03-17T03:37:41.000Z</time>
        <extensions>
          <ns3:TrackPointExtension>
            <ns3:atemp>31.0</ns3:atemp>
            <ns3:hr>138</ns3:hr>
          </ns3:TrackPointExtension>
        </extensions>
      </trkpt>
      <trkpt lat="22.58520548231899738311767578125" lon="114.2656276188790798187255859375">
        <ele>138</ele>
        <time>2026-03-17T03:37:42.000Z</time>
        <extensions>
          <ns3:TrackPointExtension>
            <ns3:atemp>31.0</ns3:atemp>
            <ns3:hr>136</ns3:hr>
          </ns3:TrackPointExtension>
        </extensions>
      </trkpt>
      <trkpt lat="22.5851837731897830963134765625" lon="114.26559601910412311553955078125">
        <ele>138.1999969482421875</ele>
        <time>2026-03-17T03:37:43.000Z</time>
        <extensions>
          <ns3:TrackPointExtension>
            <ns3:atemp>30.0</ns3:atemp>
            <ns3:hr>135</ns3:hr>
          </ns3:TrackPointExtension>
        </extensions>
      </trkpt>
      <trkpt lat="22.58516089059412479400634765625" lon="114.26556919701397418975830078125">
        <ele>138.399993896484375</ele>
        <time>2026-03-17T03:37:44.000Z</time>
        <extensions>
          <ns3:TrackPointExtension>
            <ns3:atemp>31.0</ns3:atemp>
            <ns3:hr>134</ns3:hr>
          </ns3:TrackPointExtension>
        </extensions>
      </trkpt>
      <trkpt lat="22.58514077402651309967041015625" lon="114.26556081511080265045166015625">
        <ele>138.600006103515625</ele>
        <time>2026-03-17T03:37:45.000Z</time>
        <extensions>
          <ns3:TrackPointExtension>
            <ns3:atemp>31.0</ns3:atemp>
            <ns3:hr>133</ns3:hr>
          </ns3:TrackPointExtension>
        </extensions>
      </trkpt>
      <trkpt lat="22.585125267505645751953125" lon="114.26557221449911594390869140625">
        <ele>138.8000030517578125</ele>
        <time>2026-03-17T03:37:46.000Z</time>
        <extensions>
          <ns3:TrackPointExtension>
            <ns3:atemp>31.0</ns3:atemp>
            <ns3:hr>132</ns3:hr>
          </ns3:TrackPointExtension>
        </extensions>
      </trkpt>
      <trkpt lat="22.58511789143085479736328125" lon="114.26558344624936580657958984375">
        <ele>138.8000030517578125</ele>
        <time>2026-03-17T03:37:47.000Z</time>
        <extensions>
          <ns3:TrackPointExtension>
            <ns3:atemp>31.0</ns3:atemp>
            <ns3:hr>132</ns3:hr>
          </ns3:TrackPointExtension>
        </extensions>
      </trkpt>
      <trkpt lat="22.58511194027960300445556640625" lon="114.265593253076076507568359375">
        <ele>138.8000030517578125</ele>
        <time>2026-03-17T03:37:48.000Z</time>
        <extensions>
          <ns3:TrackPointExtension>
            <ns3:atemp>31.0</ns3:atemp>
            <ns3:hr>132</ns3:hr>
          </ns3:TrackPointExtension>
        </extensions>
      </trkpt>
      <trkpt lat="22.58511194027960300445556640625" lon="114.265593253076076507568359375">
        <ele>138.8000030517578125</ele>
        <time>2026-03-17T03:37:49.000Z</time>
        <extensions>
          <ns3:TrackPointExtension>
            <ns3:atemp>31.0</ns3:atemp>
            <ns3:hr>132</ns3:hr>
          </ns3:TrackPointExtension>
        </extensions>
      </trkpt>
      <trkpt lat="22.58511713705956935882568359375" lon="114.2655511759221553802490234375">
        <ele>138.600006103515625</ele>
        <time>2026-03-17T03:37:50.000Z</time>
        <extensions>
          <ns3:TrackPointExtension>
            <ns3:atemp>31.0</ns3:atemp>
            <ns3:hr>131</ns3:hr>
          </ns3:TrackPointExtension>
        </extensions>
      </trkpt>
      <trkpt lat="22.585141360759735107421875" lon="114.2655059136450290679931640625">
        <ele>138.8000030517578125</ele>
        <time>2026-03-17T03:37:57.000Z</time>
        <extensions>
          <ns3:TrackPointExtension>
            <ns3:atemp>30.0</ns3:atemp>
            <ns3:hr>129</ns3:hr>
          </ns3:TrackPointExtension>
        </extensions>
      </trkpt>
      <trkpt lat="22.585162818431854248046875" lon="114.2654834501445293426513671875">
        <ele>138.8000030517578125</ele>
        <time>2026-03-17T03:37:58.000Z</time>
        <extensions>
          <ns3:TrackPointExtension>
            <ns3:atemp>31.0</ns3:atemp>
            <ns3:hr>129</ns3:hr>
          </ns3:TrackPointExtension>
        </extensions>
      </trkpt>
      <trkpt lat="22.58517279289662837982177734375" lon="114.2654581367969512939453125">
        <ele>138.600006103515625</ele>
        <time>2026-03-17T03:37:59.000Z</time>
        <extensions>
          <ns3:TrackPointExtension>
            <ns3:atemp>31.0</ns3:atemp>
            <ns3:hr>129</ns3:hr>
          </ns3:TrackPointExtension>
        </extensions>
      </trkpt>
      <trkpt lat="22.58518268354237079620361328125" lon="114.2654231004416942596435546875">
        <ele>138.399993896484375</ele>
        <time>2026-03-17T03:38:00.000Z</time>
        <extensions>
          <ns3:TrackPointExtension>
            <ns3:atemp>30.0</ns3:atemp>
            <ns3:hr>130</ns3:hr>
          </ns3:TrackPointExtension>
        </extensions>
      </trkpt>
      <trkpt lat="22.58518553338944911956787109375" lon="114.26540088839828968048095703125">
        <ele>138.1999969482421875</ele>
        <time>2026-03-17T03:38:01.000Z</time>
        <extensions>
          <ns3:TrackPointExtension>
            <ns3:atemp>31.0</ns3:atemp>
            <ns3:hr>130</ns3:hr>
          </ns3:TrackPointExtension>
        </extensions>
      </trkpt>
      <trkpt lat="22.5851856172084808349609375" lon="114.26539451815187931060791015625">
        <ele>138.1999969482421875</ele>
        <time>2026-03-17T03:38:02.000Z</time>
        <extensions>
          <ns3:TrackPointExtension>
            <ns3:atemp>30.0</ns3:atemp>
            <ns3:hr>130</ns3:hr>
          </ns3:TrackPointExtension>
        </extensions>
      </trkpt>
      <trkpt lat="22.58518628776073455810546875" lon="114.2653956077992916107177734375">
        <ele>138</ele>
        <time>2026-03-17T03:38:03.000Z</time>
        <extensions>
          <ns3:TrackPointExtension>
            <ns3:atemp>31.0</ns3:atemp>
            <ns3:hr>130</ns3:hr>
          </ns3:TrackPointExtension>
        </extensions>
      </trkpt>
      <trkpt lat="22.58518628776073455810546875" lon="114.26539552398025989532470703125">
        <ele>138</ele>
        <time>2026-03-17T03:38:04.000Z</time>
        <extensions>
          <ns3:TrackPointExtension>
            <ns3:atemp>31.0</ns3:atemp>
            <ns3:hr>130</ns3:hr>
          </ns3:TrackPointExtension>
        </extensions>
      </trkpt>
      <trkpt lat="22.58518989197909832000732421875" lon="114.2653885670006275177001953125">
        <ele>138</ele>
        <time>2026-03-17T03:38:05.000Z</time>
        <extensions>
          <ns3:TrackPointExtension>
            <ns3:atemp>30.0</ns3:atemp>
            <ns3:hr>130</ns3:hr>
          </ns3:TrackPointExtension>
        </extensions>
      </trkpt>
      <trkpt lat="22.58519425056874752044677734375" lon="114.26538228057324886322021484375">
        <ele>137.8000030517578125</ele>
        <time>2026-03-17T03:38:06.000Z</time>
        <extensions>
          <ns3:TrackPointExtension>
            <ns3:atemp>31.0</ns3:atemp>
            <ns3:hr>129</ns3:hr>
          </ns3:TrackPointExtension>
        </extensions>
      </trkpt>
      <trkpt lat="22.58519031107425689697265625" lon="114.2653723061084747314453125">
        <ele>137.600006103515625</ele>
        <time>2026-03-17T03:38:07.000Z</time>
        <extensions>
          <ns3:TrackPointExtension>
            <ns3:atemp>31.0</ns3:atemp>
            <ns3:hr>128</ns3:hr>
          </ns3:TrackPointExtension>
        </extensions>
      </trkpt>
      <trkpt lat="22.5851851142942905426025390625" lon="114.2653654329478740692138671875">
        <ele>137.399993896484375</ele>
        <time>2026-03-17T03:38:08.000Z</time>
        <extensions>
          <ns3:TrackPointExtension>
            <ns3:atemp>31.0</ns3:atemp>
            <ns3:hr>127</ns3:hr>
          </ns3:TrackPointExtension>
        </extensions>
      </trkpt>
      <trkpt lat="22.58517798967659473419189453125" lon="114.26535445265471935272216796875">
        <ele>137</ele>
        <time>2026-03-17T03:38:09.000Z</time>
        <extensions>
          <ns3:TrackPointExtension>
            <ns3:atemp>31.0</ns3:atemp>
            <ns3:hr>127</ns3:hr>
          </ns3:TrackPointExtension>
        </extensions>
      </trkpt>
      <trkpt lat="22.58517698384821414947509765625" lon="114.26534405909478664398193359375">
        <ele>136.8000030517578125</ele>
        <time>2026-03-17T03:38:10.000Z</time>
        <extensions>
          <ns3:TrackPointExtension>
            <ns3:atemp>31.0</ns3:atemp>
            <ns3:hr>127</ns3:hr>
          </ns3:TrackPointExtension>
        </extensions>
      </trkpt>
      <trkpt lat="22.58517966605722904205322265625" lon="114.26534037105739116668701171875">
        <ele>136.600006103515625</ele>
        <time>2026-03-17T03:38:11.000Z</time>
        <extensions>
          <ns3:TrackPointExtension>
            <ns3:atemp>31.0</ns3:atemp>
            <ns3:hr>128</ns3:hr>
          </ns3:TrackPointExtension>
        </extensions>
      </trkpt>
      <trkpt lat="22.58518360555171966552734375" lon="114.26533584482967853546142578125">
        <ele>136.399993896484375</ele>
        <time>2026-03-17T03:38:12.000Z</time>
        <extensions>
          <ns3:TrackPointExtension>
            <ns3:atemp>30.0</ns3:atemp>
            <ns3:hr>129</ns3:hr>
          </ns3:TrackPointExtension>
        </extensions>
      </trkpt>
      <trkpt lat="22.58518167771399021148681640625" lon="114.265336431562900543212890625">
        <ele>136.600006103515625</ele>
        <time>2026-03-17T03:38:13.000Z</time>
        <extensions>
          <ns3:TrackPointExtension>
            <ns3:atemp>31.0</ns3:atemp>
            <ns3:hr>132</ns3:hr>
          </ns3:TrackPointExtension>
        </extensions>
      </trkpt>
      <trkpt lat="22.585200034081935882568359375" lon="114.26531153731048107147216796875">
        <ele>136.600006103515625</ele>
        <time>2026-03-17T03:38:14.000Z</time>
        <extensions>
          <ns3:TrackPointExtension>
            <ns3:atemp>31.0</ns3:atemp>
            <ns3:hr>133</ns3:hr>
          </ns3:TrackPointExtension>
        </extensions>
      </trkpt>
      <trkpt lat="22.58441356010735034942626953125" lon="114.265306256711483001708984375">
        <ele>131</ele>
        <time>2026-03-17T03:40:44.000Z</time>
        <extensions>
          <ns3:TrackPointExtension>
            <ns3:atemp>31.0</ns3:atemp>
            <ns3:hr>116</ns3:hr>
          </ns3:TrackPointExtension>
        </extensions>
      </trkpt>
      <trkpt lat="22.58442185819149017333984375" lon="114.26529678516089916229248046875">
        <ele>131</ele>
        <time>2026-03-17T03:40:45.000Z</time>
        <extensions>
          <ns3:TrackPointExtension>
            <ns3:atemp>31.0</ns3:atemp>
            <ns3:hr>115</ns3:hr>
          </ns3:TrackPointExtension>
        </extensions>
      </trkpt>
    </trkseg>
  </trk>
</gpx>
