<gpx xmlns:ns3="http://www.garmin.com/xmlschemas/TrackPointExtension/v1" xmlns="http://www.topografix.com/GPX/1/1" xmlns:xsi="http://www.w3.org/2001/XMLSchema-instance" xmlns:ns2="http://www.garmin.com/xmlschemas/GpxExtensions/v3" creator="Garmin Connect" version="1.1" xsi:schemaLocation="http://www.topografix.com/GPX/1/1 http://www.topografix.com/GPX/11.xsd">
  <extensions>
<distance>5010.0</distance>
<average_hr>162.0</average_hr>
<average_speed>2.178999900817871</average_speed>
<start_time>2026-04-21T08:08:38+00:00</start_time>
<end_time>2026-04-21T08:46:57.189000+00:00</end_time>
<moving_time>2275.784</moving_time>
<elapsed_time>2310.795</elapsed_time>
</extensions>
<metadata>
    <link href="connect.garmin.com">
      <text>Garmin Connect</text>
    </link>
    <time>2026-04-21T08:08:38.000Z</time>
  </metadata>
  <trk>
    <name>2026 年第一次跑步机</name>
    <desc/>
    <type>treadmill_running</type>
    <trkseg/>
  </trk>
</gpx>
