<gpx xmlns:ns3="http://www.garmin.com/xmlschemas/TrackPointExtension/v1" xmlns="http://www.topografix.com/GPX/1/1" xmlns:xsi="http://www.w3.org/2001/XMLSchema-instance" xmlns:ns2="http://www.garmin.com/xmlschemas/GpxExtensions/v3" creator="Garmin Connect" version="1.1" xsi:schemaLocation="http://www.topografix.com/GPX/1/1 http://www.topografix.com/GPX/11.xsd">
  <extensions>
<distance>21500.0</distance>
<average_hr>153.0</average_hr>
<average_speed>2.8780000209808345</average_speed>
<start_time>2020-02-22T07:59:36+00:00</start_time>
<end_time>2020-02-22T10:04:05.456000+00:00</end_time>
<moving_time>6894.958</moving_time>
<elapsed_time>8404.002</elapsed_time>
</extensions>
<metadata>
    <link href="connect.garmin.com">
      <text>Garmin Connect</text>
    </link>
    <time>2020-02-22T07:59:36.000Z</time>
  </metadata>
  <trk>
    <name>第一次跑步机半马</name>
    <type>treadmill_running</type>
    <trkseg/>
  </trk>
</gpx>
