<gpx xmlns:ns3="http://www.garmin.com/xmlschemas/TrackPointExtension/v1" xmlns="http://www.topografix.com/GPX/1/1" xmlns:xsi="http://www.w3.org/2001/XMLSchema-instance" xmlns:ns2="http://www.garmin.com/xmlschemas/GpxExtensions/v3" creator="Garmin Connect" version="1.1" xsi:schemaLocation="http://www.topografix.com/GPX/1/1 http://www.topografix.com/GPX/11.xsd">
  <extensions>
<distance>22.83</distance>
<average_hr>147.0</average_hr>
<average_speed>0.7540000081062317</average_speed>
<start_time>2020-04-21T09:34:07+00:00</start_time>
<end_time>2020-04-21T09:34:37.271000+00:00</end_time>
<moving_time>15.0</moving_time>
<elapsed_time>30.271</elapsed_time>
</extensions>
<metadata>
    <link href="connect.garmin.com">
      <text>Garmin Connect</text>
    </link>
    <time>2020-04-21T09:34:07.000Z</time>
  </metadata>
  <trk>
    <name>步行</name>
    <type>walking</type>
    <trkseg/>
  </trk>
</gpx>
