<gpx xmlns:ns3="http://www.garmin.com/xmlschemas/TrackPointExtension/v1" xmlns="http://www.topografix.com/GPX/1/1" xmlns:xsi="http://www.w3.org/2001/XMLSchema-instance" xmlns:ns2="http://www.garmin.com/xmlschemas/GpxExtensions/v3" creator="Garmin Connect" version="1.1" xsi:schemaLocation="http://www.topografix.com/GPX/1/1 http://www.topografix.com/GPX/11.xsd">
  <extensions>
<distance>10000.0</distance>
<average_hr>165.0</average_hr>
<average_speed>3.0627871362940273</average_speed>
<start_time>2020-05-30T09:28:52+00:00</start_time>
<end_time>2020-05-30T10:23:17+00:00</end_time>
<moving_time>3252.438</moving_time>
<elapsed_time>3276.628</elapsed_time>
</extensions>
<metadata>
    <link href="connect.garmin.com">
      <text>Garmin Connect</text>
    </link>
    <time>2020-05-30T09:28:52.000Z</time>
  </metadata>
  <trk>
    <name>跑步机上跑步</name>
    <type>treadmill_running</type>
    <trkseg/>
  </trk>
</gpx>
